register_id,name,created,addresses_road_id,addresses_road_name,addresses_neighborhood_id,addresses_neighborhood_name,addresses_district_id,addresses_district_name,addresses_zip_code,addresses_town,secondary_filters_id,secondary_filters_name,secondary_filters_fullpath,secondary_filters_tree,secondary_filters_asia_id,geo_epgs_25831_x,geo_epgs_25831_y,geo_epgs_4326_lat,geo_epgs_4326_lon
﻿99400118971,El Parc del Fòrum,2005-06-13T14:48:17+02:00,701612,Pl Fòrum,70,El Besòs I El Maresme,10,Sant Martí,8019,Barcelona,55737068,Parcs i jardins,Planol BCN >> Cultura i lleure >> Parcs i jardins >> Parcs i jardins,651,65103002006000,434953.1247181961,4584683.244402898,41.41106682138965,2.2217148764638015
﻿99400078452,Jardins de Carles Barral,2004-03-30T17:02:09+02:00,701205,Carrer De Josep Ferrater I Móra,69,Diagonal Mar I El Front Marítim Del Poblenou,10,Sant Martí,8019,Barcelona,55737068,Parcs i jardins,Planol BCN >> Cultura i lleure >> Parcs i jardins >> Parcs i jardins,651,65103002006000,434068.5914837838,4583793.998903305,41.40298554153319,2.211229278665123
﻿99335102401,Jardins Casa Bloc,1999-12-01T00:00:00+01:00,350705,Valentí Iglésias,60,Sant Andreu,9,Sant Andreu,8030,Barcelona,55737068,Parcs i jardins,Planol BCN >> Cultura i lleure >> Parcs i jardins >> Parcs i jardins,651,65103002006000,432310.1527105217,4588058.4809917975,41.44124821570757,2.189716845737701
﻿99335115236,Jardins Clara Campoamor,1999-12-01T00:00:00+01:00,144601,Av Diagonal,19,Les Corts,4,Les Corts,8028,Barcelona,55737068,Parcs i jardins,Planol BCN >> Cultura i lleure >> Parcs i jardins >> Parcs i jardins,651,65103002006000,427160.5599373811,4582226.312779045,41.38826987549862,2.128782316455014
﻿99400391938,Jardí dels Tarongers,2015-07-21T11:01:46+02:00,273353,C Rábida,21,Pedralbes,4,Les Corts,8034,Barcelona,55737068,Parcs i jardins,Planol BCN >> Cultura i lleure >> Parcs i jardins >> Parcs i jardins,651,65103002006000,425370.08613848453,4583137.374500183,41.396311253391424,2.1072570259147585
﻿99400092552,Viver Municipal de Plantes Tres Pins,2004-07-19T14:12:52+02:00,213307,Av Miramar,11,El Poble-Sec,3,Sants-Montjuïc,8038,Barcelona,55737068,Parcs i jardins,Planol BCN >> Cultura i lleure >> Parcs i jardins >> Parcs i jardins,651,65103002006000,429831.0254485962,4579982.388246627,41.36829695911561,2.160979651846159
﻿99400222552,Jardins Interior d'Illa Laura Albéniz,2009-03-05T13:00:28+01:00,247659,Carrer De Pau Claris,7,La Dreta De L'Eixample,2,Eixample,8037,Barcelona,55737069,Interiors d'illa,Planol BCN >> Cultura i lleure >> Parcs i jardins >> Interiors d'illa,651,65103002006001,430007.7850845754,4583081.42203775,41.39622434116736,2.162735015218643
﻿99400179040,Jardins Interior d'Illa Mercè Vilaret,2007-03-06T14:49:33+01:00,127704,Carrer De Floridablanca,10,Sant Antoni,2,Eixample,8011,Barcelona,55737069,Interiors d'illa,Planol BCN >> Cultura i lleure >> Parcs i jardins >> Interiors d'illa,651,65103002006001,429994.36754698853,4581485.571606345,41.381849883524495,2.162758957752457
﻿95125123806,Parc Jorge Manrique,1995-05-05T00:00:00+02:00,169103,Jorge Manrique,41,La Vall D'Hebron,7,Horta-Guinardó,8035,Barcelona,55737068,Parcs i jardins,Planol BCN >> Cultura i lleure >> Parcs i jardins >> Parcs i jardins,651,65103002006000,428721.77773156314,4587094.524645487,41.43225574768443,2.1468802640256657
﻿95062123700,Jardins Interiors d'Illa del Carlit,1995-03-03T00:00:00+01:00,286504,Carrer De Roger De Flor,7,La Dreta De L'Eixample,2,Eixample,8013,Barcelona,55737069,Interiors d'illa,Planol BCN >> Cultura i lleure >> Parcs i jardins >> Interiors d'illa,651,65103002006001,431056.848,4583191.558,41.39730692489515,2.1752703802550593
﻿99400686182,Parc de l'Aqüeducte de Ciutat Meridiana,2022-02-17T11:29:50.588831+01:00,275600,Avinguda Dels Rasos De Peguera,55,Ciutat Meridiana,8,Nou Barris,8033,Barcelona,55737068,Parcs i jardins,Planol BCN >> Cultura i lleure >> Parcs i jardins >> Parcs i jardins,651,65103002006000,431104.474,4590097.74,41.45951244675095,2.1750530030980126
﻿93188125133,Parc de la Trinitat,1993-07-07T00:00:00+02:00,314100,Pg Santa Coloma,60,Sant Andreu,9,Sant Andreu,8030,Barcelona,55737068,Parcs i jardins,Planol BCN >> Cultura i lleure >> Parcs i jardins >> Parcs i jardins,651,65103002006000,432814.485640381,4588944.298465399,41.449268825219306,2.1956548753915466
﻿95151115237,Jardins de Marcos Redondo,1995-05-31T00:00:00+02:00,51205,Buenos Aires,8,L'Antiga Esquerra De L'Eixample,2,Eixample,8029,Barcelona,55737068,Parcs i jardins,Planol BCN >> Cultura i lleure >> Parcs i jardins >> Parcs i jardins,651,65103002006000,428540.7864605696,4582513.999266599,41.39098475931237,2.145255205929556
﻿99400047543,Jardins de Juan Ponce,2003-06-26T11:21:24+02:00,67001,Ctra Carmel,37,El Carmel,7,Horta-Guinardó,8024,Barcelona,55737068,Parcs i jardins,Planol BCN >> Cultura i lleure >> Parcs i jardins >> Parcs i jardins,651,65103002006000,429516.7413458598,4585518.891167119,41.41813481606472,2.1565777551335916
﻿99400047553,Jardins Interior d'Illa de Maria-Mercè Marçal,2003-06-26T12:40:29+02:00,268003,Carrer De Provença,9,La Nova Esquerra De L'Eixample,2,Eixample,8029,Barcelona,55737069,Interiors d'illa,Planol BCN >> Cultura i lleure >> Parcs i jardins >> Interiors d'illa,651,65103002006001,428898.4320933925,4581999.018366899,41.38637821024603,2.1495931040167817
﻿99278140944,Jardins Manuel J. Arnalot,1999-10-05T00:00:00+02:00,226604,Natzaret,39,Sant Genís Dels Agudells,7,Horta-Guinardó,8035,Barcelona,55737068,Parcs i jardins,Planol BCN >> Cultura i lleure >> Parcs i jardins >> Parcs i jardins,651,65103002006000,427852.9703143946,4586391.518311446,41.42584651716662,2.136566647910745
﻿98202134253,Jardins del Doctor Fleming,1998-07-21T00:00:00+02:00,127806,C Floristes De La Rambla,1,El Raval,1,Ciutat Vella,8001,Barcelona,55737068,Parcs i jardins,Planol BCN >> Cultura i lleure >> Parcs i jardins >> Parcs i jardins,651,65103002006000,430588.7887730693,4581460.419974388,41.3816748521253,2.1698701741655286
﻿96142123016,Jardins Interior d'Illa de Montserrat Roig,1996-05-21T00:00:00+02:00,289105,Carrer Del Rosselló,6,La Sagrada Família,2,Eixample,8025,Barcelona,55737069,Interiors d'illa,Planol BCN >> Cultura i lleure >> Parcs i jardins >> Interiors d'illa,651,65103002006001,431333.8119156561,4584469.633770393,41.40884184106481,2.178438240083388
﻿98294161742,Parc de Can Dragó,1998-10-21T00:00:00+02:00,289852,C Rosselló I Porcel,45,Porta,8,Nou Barris,8016,Barcelona,55737068,Parcs i jardins,Planol BCN >> Cultura i lleure >> Parcs i jardins >> Parcs i jardins,651,65103002006000,431757.272178684,4587546.819864842,41.436593069404815,2.183157005742885
﻿99400036180,Jardins de Joan Brossa,2003-03-21T11:14:53+01:00,97705,Plaça De Dante,11,El Poble-Sec,3,Sants-Montjuïc,8038,Barcelona,55737068,Parcs i jardins,Planol BCN >> Cultura i lleure >> Parcs i jardins >> Parcs i jardins,651,65103002006000,430168.733,4580020.648,41.36867092135471,2.1650128504069532
﻿99400679280,Jardí de Cristina Fernández Pereira,2021-11-11T14:37:04.313518+01:00,349706,Carrer Del Comte D'Urgell,10,Sant Antoni,2,Eixample,8011,Barcelona,55737069,Interiors d'illa,Planol BCN >> Cultura i lleure >> Parcs i jardins >> Interiors d'illa,651,65103002006001,429792.36046328,4581352.87300485,41.38063710862745,2.160358651511553
﻿96113124729,Parc del Port Olímpic,1996-04-22T00:00:00+02:00,700654,Av Litoral,67,La Vila Olímpica Del Poblenou,10,Sant Martí,8005,Barcelona,55737068,Parcs i jardins,Planol BCN >> Cultura i lleure >> Parcs i jardins >> Parcs i jardins,651,65103002006000,433046.83171672735,4582255.925706945,41.389048081071486,2.1991766508205544
﻿96113125023,Parc del Poblenou,1996-04-22T00:00:00+02:00,700654,Av Litoral,68,El Poblenou,10,Sant Martí,8005,Barcelona,55737068,Parcs i jardins,Planol BCN >> Cultura i lleure >> Parcs i jardins >> Parcs i jardins,651,65103002006000,433748.6157166563,4583163.413991481,41.39727971819072,2.207470604184096
﻿99400028465,Jardí Interior d'Illa del carrer Deià,2002-11-29T12:29:37+01:00,100209,C Deià,45,Porta,8,Nou Barris,8016,Barcelona,55737068,Parcs i jardins,Planol BCN >> Cultura i lleure >> Parcs i jardins >> Parcs i jardins,651,65103002006000,430952.2580333685,4587339.043725705,41.43465289400298,2.173545947718336
﻿95125123610,Parc del Mirador del Poble-sec,1995-05-05T00:00:00+02:00,218606,Passeig De Montjuïc,11,El Poble-Sec,3,Sants-Montjuïc,8038,Barcelona,55737068,Parcs i jardins,Planol BCN >> Cultura i lleure >> Parcs i jardins >> Parcs i jardins,651,65103002006000,430604.54984327627,4580377.27955072,41.37192068979768,2.1701826605872294
﻿95125123707,Jardins de les Tres Xemeneies,1995-05-05T00:00:00+02:00,198804,Av Paral.Lel,11,El Poble-Sec,3,Sants-Montjuïc,8004,Barcelona,55737068,Parcs i jardins,Planol BCN >> Cultura i lleure >> Parcs i jardins >> Parcs i jardins,651,65103002006000,430795.2089308493,4580659.975829925,41.37448327029571,2.172430025242432
﻿99400582806,Jardíns Interior d'Illa Assumpció Català,2018-04-11T12:48:03+02:00,87009,Carrer Del Comte Borrell,9,La Nova Esquerra De L'Eixample,2,Eixample,8029,Barcelona,55737069,Interiors d'illa,Planol BCN >> Cultura i lleure >> Parcs i jardins >> Interiors d'illa,651,65103002006001,428635.08203618,4582349.34504003,41.38951015269185,2.146402382506317
﻿95114111740,Jardins Ca l'Alena,1995-04-24T00:00:00+02:00,230601,C Mare De Déu De Port,13,La Marina De Port,3,Sants-Montjuïc,8038,Barcelona,55737068,Parcs i jardins,Planol BCN >> Cultura i lleure >> Parcs i jardins >> Parcs i jardins,651,65103002006000,428302.6995213611,4579010.189420074,41.35940601819005,2.1428221080393035
﻿92086035921,Jardins de Ca n'Altimira,1991-05-15T00:00:00+02:00,189803,Maó,25,Sant Gervasi - La Bonanova,5,Sarrià-Sant Gervasi,8022,Barcelona,55737068,Parcs i jardins,Planol BCN >> Cultura i lleure >> Parcs i jardins >> Parcs i jardins,651,65103002006000,427403.1042117444,4583932.735185167,41.403660833481105,2.1314784393711608
﻿99400214279,Jardins d'Interior d'Illa de Gaietà Renom,2008-10-01T19:50:21+02:00,219100,C Montnegre,19,Les Corts,4,Les Corts,8029,Barcelona,55737068,Parcs i jardins,Planol BCN >> Cultura i lleure >> Parcs i jardins >> Parcs i jardins,651,65103002006000,428049.1573031618,4582212.840100779,41.388228506917976,2.139411091038567
﻿99400354567,Jardins de Jaume Vicens Vives,2014-10-01T16:24:18+02:00,144601,Av Diagonal,20,La Maternitat I Sant Ramon,4,Les Corts,8028,Barcelona,55737068,Parcs i jardins,Planol BCN >> Cultura i lleure >> Parcs i jardins >> Parcs i jardins,651,65103002006000,426755.75490054366,4582095.394969042,41.387053996155295,2.123956896300959
﻿99400594260,Jardins d'Elisava,2018-06-08T14:26:45+02:00,29206,C Àvila,66,El Parc I La Llacuna Del Poblenou,10,Sant Martí,8018,Barcelona,55737068,Parcs i jardins,Planol BCN >> Cultura i lleure >> Parcs i jardins >> Parcs i jardins,651,65103002006000,432187.4237807513,4583692.372522538,41.40191375197916,2.1887374394493406
﻿99400248563,Jardins de Rosa Deulofeu,2010-06-09T12:45:40+02:00,54509,Carrer De Calàbria,9,La Nova Esquerra De L'Eixample,2,Eixample,8029,Barcelona,55737069,Interiors d'illa,Planol BCN >> Cultura i lleure >> Parcs i jardins >> Interiors d'illa,651,65103002006001,428561.54777153005,4582073.93979411,41.3870231530162,2.1455554093811835
﻿99400139986,Jardins d'Interior d'Illa Clot d'en Salvi,2005-08-03T14:39:09+02:00,343903,Trav Corts,20,La Maternitat I Sant Ramon,4,Les Corts,8028,Barcelona,55737068,Parcs i jardins,Planol BCN >> Cultura i lleure >> Parcs i jardins >> Parcs i jardins,651,65103002006000,426581.5728094316,4581106.555581677,41.37813205779767,2.1219936236474464
﻿99400452657,Jardins del Camp de Sarrià,2016-06-09T14:02:49+02:00,701443,Ptge Ricard Zamora,24,Les Tres Torres,5,Sarrià-Sant Gervasi,8017,Barcelona,55737068,Parcs i jardins,Planol BCN >> Cultura i lleure >> Parcs i jardins >> Parcs i jardins,651,65103002006000,427551.51901801775,4582780.278458189,41.39329452670943,2.1333917229930712
﻿99400452847,Jardins de la Plaça Gaudi,2016-06-13T12:50:47+02:00,142355,Pl Gaudí,6,La Sagrada Família,2,Eixample,8013,Barcelona,55737068,Parcs i jardins,Planol BCN >> Cultura i lleure >> Parcs i jardins >> Parcs i jardins,651,65103002006000,431086.8334002347,4584051.676795885,41.4050563057242,2.1755311321584228
﻿92086015836,Parc de l'Espanya Industrial,1986-07-09T00:00:00+02:00,223504,Carrer De Muntadas,18,Sants,3,Sants-Montjuïc,8014,Barcelona,55737068,Parcs i jardins,Planol BCN >> Cultura i lleure >> Parcs i jardins >> Parcs i jardins,651,65103002006000,428074.97663729,4580914.3323903,41.37653564822331,2.139874006322372
﻿92086010721,Parc de Cervantes,1985-02-12T00:00:00+01:00,144601,Av Diagonal,21,Pedralbes,4,Les Corts,8034,Barcelona,55737068,Parcs i jardins,Planol BCN >> Cultura i lleure >> Parcs i jardins >> Parcs i jardins,651,65103002006000,425539.12778479233,4581831.834275153,41.38456852873157,2.1094394046493576
﻿99400062139,Jardins de Sofia Barat,2003-10-03T13:58:57+02:00,145003,Carrer De Girona,7,La Dreta De L'Eixample,2,Eixample,8009,Barcelona,55737069,Interiors d'illa,Planol BCN >> Cultura i lleure >> Parcs i jardins >> Interiors d'illa,651,65103002006001,430740.74499818846,4582905.756902333,41.394705643823904,2.1715220785730867
﻿92086028091,Parc de l'Estació del Nord,1988-09-26T00:00:00+01:00,225500,Carrer De Nàpols,5,El Fort Pienc,2,Eixample,8018,Barcelona,55737068,Parcs i jardins,Planol BCN >> Cultura i lleure >> Parcs i jardins >> Parcs i jardins,651,65103002006000,431779.279930913,4582781.090329668,41.39367157911195,2.1839578397165673
﻿99400323039,Parc de les Rieres d'Horta,2013-07-29T17:51:59+02:00,700651,Av Estatut De Catalunya,42,La Clota,7,Horta-Guinardó,8035,Barcelona,55737068,Parcs i jardins,Planol BCN >> Cultura i lleure >> Parcs i jardins >> Parcs i jardins,651,65103002006000,429337.0377888211,4586957.856106121,41.43107919974659,2.154259435001784
﻿92086017160,Parc del Clot,1986-11-10T00:00:00+01:00,113506,Escultors Claperós,65,El Clot,10,Sant Martí,8018,Barcelona,55737068,Parcs i jardins,Planol BCN >> Cultura i lleure >> Parcs i jardins >> Parcs i jardins,651,65103002006000,432301.05353049666,4584419.492454296,41.40847228003916,2.1900153665666733
﻿92086011931,Jardins de Vil·la Amèlia,1985-04-01T00:00:00+02:00,107300,Carrer D'Eduardo Conde,23,Sarrià,5,Sarrià-Sant Gervasi,8034,Barcelona,55737068,Parcs i jardins,Planol BCN >> Cultura i lleure >> Parcs i jardins >> Parcs i jardins,651,65103002006000,426531.9039098267,4582858.46247544,41.39390619967619,2.1211872573336934
﻿92086011949,Park Güell,1987-10-28T00:00:00+01:00,234908,Carrer D'Olot,30,La Salut,6,Gràcia,8024,Barcelona,55737068,Parcs i jardins,Planol BCN >> Cultura i lleure >> Parcs i jardins >> Parcs i jardins,651,65103002006000,429223.3603020286,4585008.1790845245,41.41350924872243,2.1531271963876577
﻿92086012469,Jardins de Montserrat,1985-04-23T00:00:00+02:00,285807,C Rocafort,9,La Nova Esquerra De L'Eixample,2,Eixample,8029,Barcelona,55737068,Parcs i jardins,Planol BCN >> Cultura i lleure >> Parcs i jardins >> Parcs i jardins,651,65103002006000,428574.3762652824,4581896.063303266,41.38542222450258,2.1457298000042595
﻿99400261845,Jardí,2010-12-21T00:00:00+01:00,700827,Av Cardenal Vidal Barraquer,42,La Clota,7,Horta-Guinardó,8035,Barcelona,55737068,Parcs i jardins,Planol BCN >> Cultura i lleure >> Parcs i jardins >> Parcs i jardins,651,65103002006000,429089.4952233808,4586806.246531563,41.42969190027591,2.15131477992075
﻿99400248564,Jardins de Beatriu de Provença,2010-06-09T13:02:58+02:00,225500,Carrer De Nàpols,6,La Sagrada Família,2,Eixample,8013,Barcelona,55737069,Interiors d'illa,Planol BCN >> Cultura i lleure >> Parcs i jardins >> Interiors d'illa,651,65103002006001,430760.84177837,4583692.93960395,41.40179726989525,2.1716724323305296
﻿99400248566,Jardins d'Enriqueta Sèculi,2010-06-09T13:07:07+02:00,325800,Passatge De Simó,6,La Sagrada Família,2,Eixample,8025,Barcelona,55737069,Interiors d'illa,Planol BCN >> Cultura i lleure >> Parcs i jardins >> Interiors d'illa,651,65103002006001,430901.24037437,4583997.35255979,41.40455109461742,2.1733171427256734
﻿99400214923,Jardins de Mercè Rodoreda,2008-10-08T17:22:18+02:00,279600,Av República Argentina,27,El Putxet I El Farró,5,Sarrià-Sant Gervasi,8023,Barcelona,55737068,Parcs i jardins,Planol BCN >> Cultura i lleure >> Parcs i jardins >> Parcs i jardins,651,65103002006000,428457.0927959453,4584762.824315427,41.41123159253481,2.143988466465584
﻿99400182240,Jardins Interior d'Illa d'Ermessenda de Carcassona,2007-04-30T13:11:09+02:00,349706,Carrer Del Comte D'Urgell,9,La Nova Esquerra De L'Eixample,2,Eixample,8036,Barcelona,55737069,Interiors d'illa,Planol BCN >> Cultura i lleure >> Parcs i jardins >> Interiors d'illa,651,65103002006001,429103.90134794,4582055.40297948,41.386904180935765,2.1520437522177067
﻿99400209418,Jardins de Remedios Varo,2008-07-02T10:16:40+02:00,95801,Carrer Dels Pellaires,69,Diagonal Mar I El Front Marítim Del Poblenou,10,Sant Martí,8019,Barcelona,55737068,Parcs i jardins,Planol BCN >> Cultura i lleure >> Parcs i jardins >> Parcs i jardins,651,65103002006000,433963.1534887792,4583892.829918849,41.40386703390893,2.209957203592256
﻿99400181025,Jardins de Mossèn Costa i Llobera,2007-04-17T12:52:45+02:00,213409,Ctra Miramar,11,El Poble-Sec,3,Sants-Montjuïc,8038,Barcelona,55737068,Parcs i jardins,Planol BCN >> Cultura i lleure >> Parcs i jardins >> Parcs i jardins,651,65103002006000,430781.1961783196,4580119.600102804,41.36961505587559,2.17232416934953
﻿99400269208,Jardins Interior d'Illa Carretera Antiga d'Horta,2011-04-18T14:32:37+02:00,17466,Carretera Antiga D'Horta,5,El Fort Pienc,2,Eixample,8013,Barcelona,55737069,Interiors d'illa,Planol BCN >> Cultura i lleure >> Parcs i jardins >> Interiors d'illa,651,65103002006001,431467.436956429,4582806.203021612,41.393871248178975,2.180225162162942
﻿99099133954,Jardins Vidriera,1999-04-09T00:00:00+02:00,142504,Gaiarre,16,La Bordeta,3,Sants-Montjuïc,8014,Barcelona,55737068,Parcs i jardins,Planol BCN >> Cultura i lleure >> Parcs i jardins >> Parcs i jardins,651,65103002006000,428146.75072188687,4580492.97590764,41.37274705563819,2.1407821790178123
﻿99106095835,Jardins de Massana,1999-04-16T00:00:00+02:00,121402,Felip Ii,62,El Congrés I Els Indians,9,Sant Andreu,8027,Barcelona,55737068,Parcs i jardins,Planol BCN >> Cultura i lleure >> Parcs i jardins >> Parcs i jardins,651,65103002006000,431360.3282461378,4586490.116080333,41.42704189433846,2.1785261828350926
﻿99400176876,Jardins de Margarida Comas,2007-02-02T11:08:36+01:00,186703,C Llull,67,La Vila Olímpica Del Poblenou,10,Sant Martí,8005,Barcelona,55737068,Parcs i jardins,Planol BCN >> Cultura i lleure >> Parcs i jardins >> Parcs i jardins,651,65103002006000,432405.1638788237,4582629.031938875,41.3923548800096,2.191460787027334
﻿99400047563,Jardins de Lina Òdena,2003-06-26T13:25:52+02:00,76807,Carrer De Sardenya,5,El Fort Pienc,2,Eixample,8013,Barcelona,55737069,Interiors d'illa,Planol BCN >> Cultura i lleure >> Parcs i jardins >> Interiors d'illa,651,65103002006001,431727.89,4583090.651,41.39645533894941,2.1833082836130293
﻿99400175567,Jardins de Tete Montoliu,2007-01-15T13:25:26+01:00,323203,Carrer De Sepúlveda,10,Sant Antoni,2,Eixample,8015,Barcelona,55737069,Interiors d'illa,Planol BCN >> Cultura i lleure >> Parcs i jardins >> Interiors d'illa,651,65103002006001,429521.94316748,4581179.1137424605,41.37904847535037,2.1571451648239623
﻿99278142252,Jardins Can Brasó,1999-10-05T00:00:00+02:00,172709,Juan De Mena,41,La Vall D'Hebron,7,Horta-Guinardó,8032,Barcelona,55737068,Parcs i jardins,Planol BCN >> Cultura i lleure >> Parcs i jardins >> Parcs i jardins,651,65103002006000,428847.085539423,4586980.769780192,41.43124231829737,2.1483932883821786
﻿99400240382,Jardins de Xavier Berenguel,2010-02-01T13:56:33+01:00,196707,C Marià Aguiló,68,El Poblenou,10,Sant Martí,8005,Barcelona,55737068,Parcs i jardins,Planol BCN >> Cultura i lleure >> Parcs i jardins >> Parcs i jardins,651,65103002006000,433083.6730330143,4583893.414740289,41.40379957835931,2.199436307435502
﻿99400596451,Jardins de Can Ferrer,2018-07-02T14:00:31+02:00,8501,C Alfons Xii,26,Sant Gervasi - Galvany,5,Sarrià-Sant Gervasi,8006,Barcelona,55737068,Parcs i jardins,Planol BCN >> Cultura i lleure >> Parcs i jardins >> Parcs i jardins,651,65103002006000,428849.68026350974,4583435.720340071,41.39931373822779,2.1488412870625373
﻿92086017159,Parc de la Pegaso,1986-11-10T00:00:00+01:00,292507,C Sagrera,61,La Sagrera,9,Sant Andreu,8027,Barcelona,55737068,Parcs i jardins,Planol BCN >> Cultura i lleure >> Parcs i jardins >> Parcs i jardins,651,65103002006000,432380.66434664535,4586463.426545867,41.42688804853377,2.190739286407059
﻿99400320168,Parc de Can Rigal,2013-06-14T13:08:05+02:00,700811,Av Albert Bastardas,20,La Maternitat I Sant Ramon,4,Les Corts,8028,Barcelona,55737068,Parcs i jardins,Planol BCN >> Cultura i lleure >> Parcs i jardins >> Parcs i jardins,651,65103002006000,425390.9683537448,4581251.521906029,41.37932819241353,2.1077390567867273
﻿92086011952,Parc del Laberint d'Horta,1985-04-01T00:00:00+02:00,72158,Passeig Dels Castanyers,40,Montbau,7,Horta-Guinardó,8035,Barcelona,55737068,Parcs i jardins,Planol BCN >> Cultura i lleure >> Parcs i jardins >> Parcs i jardins,651,65103002006000,428784.9119850791,4587726.919497975,41.43795704876439,2.1475613087947547
﻿92086011954,Parc del Guinardó,1985-04-01T00:00:00+02:00,141206,Garriga I Roca,35,El Guinardó,7,Horta-Guinardó,8041,Barcelona,55737068,Parcs i jardins,Planol BCN >> Cultura i lleure >> Parcs i jardins >> Parcs i jardins,651,65103002006000,430607.5997245253,4585658.752029341,41.41948943678852,2.169613897166294
﻿92086011958,Parc del Turó de la Peira,1985-04-01T00:00:00+02:00,119003,Passeig De Fabra I Puig,46,El Turó De La Peira,8,Nou Barris,8031,Barcelona,55737068,Parcs i jardins,Planol BCN >> Cultura i lleure >> Parcs i jardins >> Parcs i jardins,651,65103002006000,430107.247,4587214.961,41.43346223343624,2.1634471242007627
﻿92104081626,Jardins Rubió i Tuduri,1992-04-13T00:00:00+02:00,328003,Sor Eulàlia D'Anzizu,21,Pedralbes,4,Les Corts,8034,Barcelona,55737068,Parcs i jardins,Planol BCN >> Cultura i lleure >> Parcs i jardins >> Parcs i jardins,651,65103002006000,426010.3520109353,4582709.864811401,41.392520033928925,2.1149674090960895
﻿99400214781,Jardins del Mirall de Pedralbes,2008-10-07T17:19:22+02:00,101700,C Doctor Ferran,21,Pedralbes,4,Les Corts,8034,Barcelona,55737068,Parcs i jardins,Planol BCN >> Cultura i lleure >> Parcs i jardins >> Parcs i jardins,651,65103002006000,426785.8585203906,4582497.6930502355,41.390680064262654,2.124268289181158
﻿92174135231,Parc La Font Castellana,1992-06-22T00:00:00+02:00,135702,Pl Font Castellana,34,Can Baró,7,Horta-Guinardó,8024,Barcelona,55737068,Parcs i jardins,Planol BCN >> Cultura i lleure >> Parcs i jardins >> Parcs i jardins,651,65103002006000,430129.98840922664,4585431.478146423,41.41740107744514,2.1639253838246706
﻿95041113822,Jardins Hortes Sant Bertran,1995-02-10T00:00:00+01:00,361009,Vila I Vilà,11,El Poble-Sec,3,Sants-Montjuïc,8004,Barcelona,55737068,Parcs i jardins,Planol BCN >> Cultura i lleure >> Parcs i jardins >> Parcs i jardins,651,65103002006000,430977.8211987664,4580446.658949794,41.3725776684158,2.174637822860927
﻿99099131947,Jardins Josep Goday i Casals,1999-04-09T00:00:00+02:00,108856,Emèrita Augusta,20,La Maternitat I Sant Ramon,4,Les Corts,8028,Barcelona,55737068,Parcs i jardins,Planol BCN >> Cultura i lleure >> Parcs i jardins >> Parcs i jardins,651,65103002006000,426914.8565471756,4581206.283680487,41.379060608341824,2.1259668710272157
﻿99106140304,Jardí Botànic de Barcelona,1999-04-16T00:00:00+02:00,700701,Carrer Del Doctor Font I Quer,11,El Poble-Sec,3,Sants-Montjuïc,8038,Barcelona,55731069,Museus,Planol BCN >> Cultura i lleure >> Biblioteques i museus >> Museus,651,65103002000001,429639.66,4579518.613,41.364103174008655,2.15874551177556
﻿99400319598,Jardins d'Elvira Farreras Valentí,2013-06-06T13:21:30+02:00,191408,C Manacor,27,El Putxet I El Farró,5,Sarrià-Sant Gervasi,8023,Barcelona,55737068,Parcs i jardins,Planol BCN >> Cultura i lleure >> Parcs i jardins >> Parcs i jardins,651,65103002006000,428373.250699072,4584345.443367382,41.407464947326254,2.1430348062786257
﻿92086038562,Parc Metropolità Collserola,1992-03-03T00:00:00+01:00,160007,Ctra Església,22,"Vallvidrera, El Tibidabo I Les Planes",5,Sarrià-Sant Gervasi,8017,Barcelona,55737068,Parcs i jardins,Planol BCN >> Cultura i lleure >> Parcs i jardins >> Parcs i jardins,651,65103002006000,424757.44847770885,4585883.362589489,41.42098586112135,2.0995879296735516
﻿92086000166,Jardí de les Escultures *Annex Edifici Fundació Joan Miró,1990-12-13T00:00:00+01:00,213307,Av Miramar,11,El Poble-Sec,3,Sants-Montjuïc,8038,Barcelona,55737068,Parcs i jardins,Planol BCN >> Cultura i lleure >> Parcs i jardins >> Parcs i jardins,651,65103002006000,429761.57512408664,4579982.539230728,41.368292261821246,2.1601492925476364
﻿92086011955,Parc de les Aigües,1985-04-01T00:00:00+02:00,8807,Pl Alfons El Savi,33,El Baix Guinardó,7,Horta-Guinardó,8024,Barcelona,55737068,Parcs i jardins,Planol BCN >> Cultura i lleure >> Parcs i jardins >> Parcs i jardins,651,65103002006000,430255.9022747529,4585005.688323276,41.41357708464317,2.1654810232921857
﻿92086011957,Parc de la Guineueta,1985-04-16T00:00:00+02:00,186601,Plaça De La República,48,La Guineueta,8,Nou Barris,8016,Barcelona,55737068,Parcs i jardins,Planol BCN >> Cultura i lleure >> Parcs i jardins >> Parcs i jardins,651,65103002006000,431035.6921238432,4587826.426994833,41.43904973751512,2.1744888744706907
﻿99400078392,Jardí del Reg,2004-03-30T13:33:52+02:00,295709,C Sant Adrià,60,Sant Andreu,9,Sant Andreu,8030,Barcelona,55737068,Parcs i jardins,Planol BCN >> Cultura i lleure >> Parcs i jardins >> Parcs i jardins,651,65103002006000,432602.2500194519,4587343.458015337,41.43483282206298,2.1932928240604213
﻿99400078454,Jardins de Josep Maria Sostres,2004-03-30T17:07:43+02:00,322608,Carrer De La Selva De Mar,69,Diagonal Mar I El Front Marítim Del Poblenou,10,Sant Martí,8019,Barcelona,55737068,Parcs i jardins,Planol BCN >> Cultura i lleure >> Parcs i jardins >> Parcs i jardins,651,65103002006000,434259.9875870554,4583984.504082613,41.404717048212895,2.213498149079968
﻿98224200832,Jardins Can Cuiàs,1998-08-12T00:00:00+02:00,199909,Marquès De Sentmenat,19,Les Corts,4,Les Corts,8014,Barcelona,55737068,Parcs i jardins,Planol BCN >> Cultura i lleure >> Parcs i jardins >> Parcs i jardins,651,65103002006000,427744.8523364203,4581861.641462905,41.385038122169874,2.135813646243058
﻿99109141416,Parc Central de Nou Barris,1999-04-19T00:00:00+02:00,701639,Pl Major De Nou Barris,48,La Guineueta,8,Nou Barris,8042,Barcelona,55737068,Parcs i jardins,Planol BCN >> Cultura i lleure >> Parcs i jardins >> Parcs i jardins,651,65103002006000,430761.06383847794,4587584.210298242,41.4368445525108,2.1712296246319656
﻿97248100532,Parc de Josep Maria Serra Martí,1997-09-05T00:00:00+02:00,700815,C Miguel Hernández,49,Canyelles,8,Nou Barris,8042,Barcelona,55737068,Parcs i jardins,Planol BCN >> Cultura i lleure >> Parcs i jardins >> Parcs i jardins,651,65103002006000,430326.867910607,4588267.555552975,41.44296160942353,2.1659541496737007
﻿97210100620,Jardins del Doctor Roig i Raventós,1997-07-29T00:00:00+02:00,139805,C Ganduxer,24,Les Tres Torres,5,Sarrià-Sant Gervasi,8022,Barcelona,55737068,Parcs i jardins,Planol BCN >> Cultura i lleure >> Parcs i jardins >> Parcs i jardins,651,65103002006000,427359.45764301845,4583899.12350359,41.40335416512297,2.1309603596928692
﻿93172145132,Jardí Petra Kelly,1993-06-21T00:00:00+02:00,700701,C Doctor Font I Quer,11,El Poble-Sec,3,Sants-Montjuïc,8038,Barcelona,55737068,Parcs i jardins,Planol BCN >> Cultura i lleure >> Parcs i jardins >> Parcs i jardins,651,65103002006000,429852.4592835331,4579774.214283813,41.366423867792854,2.1612599936774197
﻿96304101944,Jardins Marià Manent,1996-10-30T00:00:00+01:00,115206,Espinoi,27,El Putxet I El Farró,5,Sarrià-Sant Gervasi,8023,Barcelona,55737068,Parcs i jardins,Planol BCN >> Cultura i lleure >> Parcs i jardins >> Parcs i jardins,651,65103002006000,428188.60442456696,4584664.623216,41.41032319278719,2.1407880011566567
﻿99298124307,Jardins Francesc Blanc,1999-10-25T00:00:00+02:00,95608,Costa,27,El Putxet I El Farró,5,Sarrià-Sant Gervasi,8023,Barcelona,55737068,Parcs i jardins,Planol BCN >> Cultura i lleure >> Parcs i jardins >> Parcs i jardins,651,65103002006000,428507.7553206931,4584683.706097547,41.41052351533626,2.1446039272005524
﻿99299184508,Jardins Menendez y Pelayo,1999-10-26T00:00:00+02:00,700658,Mossèn Batlle,30,La Salut,6,Gràcia,8024,Barcelona,55737068,Parcs i jardins,Planol BCN >> Cultura i lleure >> Parcs i jardins >> Parcs i jardins,651,65103002006000,429176.4608566523,4584536.9416692415,41.4092608672373,2.1526212419493542
﻿99098133752,Jardins Joaquim Domingo i Sanchez,1999-04-08T00:00:00+02:00,88001,Comtes De Bell-Lloc,18,Sants,3,Sants-Montjuïc,8014,Barcelona,55737068,Parcs i jardins,Planol BCN >> Cultura i lleure >> Parcs i jardins >> Parcs i jardins,651,65103002006000,427950.72148179327,4581176.957189105,41.37888989600432,2.1383570245016768
﻿98055091609,Jardins Manuel Blancafort,1998-02-24T00:00:00+01:00,279600,Av República Argentina,28,Vallcarca I Els Penitents,6,Gràcia,8023,Barcelona,55737068,Parcs i jardins,Planol BCN >> Cultura i lleure >> Parcs i jardins >> Parcs i jardins,651,65103002006000,428521.8981565779,4584809.681872273,41.4116593851312,2.144758244840197
﻿92086012239,Jardí Bacardí,1985-04-15T00:00:00+02:00,343903,Trav Corts,20,La Maternitat I Sant Ramon,4,Les Corts,8028,Barcelona,55737068,Parcs i jardins,Planol BCN >> Cultura i lleure >> Parcs i jardins >> Parcs i jardins,651,65103002006000,426919.19748311146,4581306.900699366,41.37996721919083,2.1260066458684292
﻿95019124337,Jardins Jaume Huguet,1995-01-19T00:00:00+01:00,165612,Pl Jaume Huguet,70,El Besòs I El Maresme,10,Sant Martí,8019,Barcelona,55737068,Parcs i jardins,Planol BCN >> Cultura i lleure >> Parcs i jardins >> Parcs i jardins,651,65103002006000,434162.06026281393,4585393.581324568,41.41740022783761,2.2121733489011537
﻿99400199129,Interior d'Illa Jardins de Maria Baldó,2008-01-25T12:28:17+01:00,230805,Carrer De La Mare De Déu Dels Reis,28,Vallcarca I Els Penitents,6,Gràcia,8023,Barcelona,55737069,Interiors d'illa,Planol BCN >> Cultura i lleure >> Parcs i jardins >> Interiors d'illa,651,65103002006001,428622.7640105891,4584985.790223994,41.41325448470696,2.145944208997487
﻿92154102452,Jardins de Joan Maragall - Palauet Albéniz,1992-06-02T00:00:00+02:00,116402,Av Estadi,11,El Poble-Sec,3,Sants-Montjuïc,8038,Barcelona,55737068,Parcs i jardins,Planol BCN >> Cultura i lleure >> Parcs i jardins >> Parcs i jardins,651,65103002006000,429456.081121897,4579856.827394613,41.3671333000304,2.156511461067073
﻿95143083146,Jardins de la Maternitat,1995-05-23T00:00:00+02:00,343903,Trav Corts,20,La Maternitat I Sant Ramon,4,Les Corts,8028,Barcelona,55737068,Parcs i jardins,Planol BCN >> Cultura i lleure >> Parcs i jardins >> Parcs i jardins,651,65103002006000,426941.2052364779,4581457.295236274,41.38132376004671,2.1262516820863993
﻿99400194129,Interior d'Illa Jardins de Maria Matilde Almendros,2007-10-30T12:54:28+01:00,54509,Carrer De Calàbria,10,Sant Antoni,2,Eixample,8015,Barcelona,55737069,Interiors d'illa,Planol BCN >> Cultura i lleure >> Parcs i jardins >> Interiors d'illa,651,65103002006001,429431.84906843,4581185.33468025,41.37909660891617,2.1560671072867783
﻿99400260339,Jardins Constança d'Aragó,2010-11-29T14:37:19+01:00,286504,Carrer De Roger De Flor,7,La Dreta De L'Eixample,2,Eixample,8013,Barcelona,55737069,Interiors d'illa,Planol BCN >> Cultura i lleure >> Parcs i jardins >> Interiors d'illa,651,65103002006001,430847.4338659534,4583370.142394142,41.39889739448143,2.172745125885269
﻿98294133930,Parc de la Nova Icària,1998-10-21T00:00:00+02:00,700667,Jaume Vicens I Vives,67,La Vila Olímpica Del Poblenou,10,Sant Martí,8005,Barcelona,55737068,Parcs i jardins,Planol BCN >> Cultura i lleure >> Parcs i jardins >> Parcs i jardins,651,65103002006000,433254.00664864073,4582529.818075483,41.391532179445136,2.201624246671236
﻿99400344486,Jardins de Salvador Escamilla,2014-06-06T12:26:50+02:00,157002,C Hort De La Vila,23,Sarrià,5,Sarrià-Sant Gervasi,8017,Barcelona,55737068,Parcs i jardins,Planol BCN >> Cultura i lleure >> Parcs i jardins >> Parcs i jardins,651,65103002006000,426733.92881671217,4583454.813702059,41.39929570329813,2.123531416317628
﻿95069105212,Jardins,1995-03-10T00:00:00+01:00,169409,G.V. Corts Catalanes,8,L'Antiga Esquerra De L'Eixample,2,Eixample,8007,Barcelona,55737068,Parcs i jardins,Planol BCN >> Cultura i lleure >> Parcs i jardins >> Parcs i jardins,651,65103002006000,430105.7503552875,4582009.345517869,41.3865770289631,2.1640304973285196
﻿99400324023,Jardins d'Ada Byron,2013-08-23T13:06:01+02:00,144601,Av Diagonal,68,El Poblenou,10,Sant Martí,8018,Barcelona,55737068,Parcs i jardins,Planol BCN >> Cultura i lleure >> Parcs i jardins >> Parcs i jardins,651,65103002006000,432655.53616681823,4584021.506406098,41.40491751304483,2.1943004594477817
﻿95072132256,Jardins Olga Sacharoff,1995-03-13T00:00:00+01:00,63703,Caravel.La La Niña,19,Les Corts,4,Les Corts,8017,Barcelona,55737068,Parcs i jardins,Planol BCN >> Cultura i lleure >> Parcs i jardins >> Parcs i jardins,651,65103002006000,427573.5278677831,4582484.54634815,41.39063297052693,2.133690322091076
﻿95109130139,Jardins del  Baix Guinardó,1995-04-19T00:00:00+02:00,197302,C Marina,33,El Baix Guinardó,7,Horta-Guinardó,8025,Barcelona,55737068,Parcs i jardins,Planol BCN >> Cultura i lleure >> Parcs i jardins >> Parcs i jardins,651,65103002006000,430517.40482267167,4584581.420513669,41.40977850723608,2.168658421542334
﻿99400322904,Jardí de Can Solé,2013-07-25T10:20:02+02:00,60705,C Cànoves,39,Sant Genís Dels Agudells,7,Horta-Guinardó,8035,Barcelona,55737068,Parcs i jardins,Planol BCN >> Cultura i lleure >> Parcs i jardins >> Parcs i jardins,651,65103002006000,427701.37276389205,4586494.648274095,41.42676173206655,2.1347402415620436
﻿99400152909,Jardins,2006-02-03T17:37:11+01:00,100800,Carrer De La Diputació,8,L'Antiga Esquerra De L'Eixample,2,Eixample,8007,Barcelona,55737069,Interiors d'illa,Planol BCN >> Cultura i lleure >> Parcs i jardins >> Interiors d'illa,651,65103002006001,430058.748782826,4582150.531130458,41.38784455590361,2.163452092831893
﻿99400265873,Jardins dels Setze Jutges,2011-03-09T13:57:03+01:00,28000,Via Augusta,23,Sarrià,5,Sarrià-Sant Gervasi,8017,Barcelona,55737068,Parcs i jardins,Planol BCN >> Cultura i lleure >> Parcs i jardins >> Parcs i jardins,651,65103002006000,426660.6754771829,4583690.111391219,41.40140824622511,2.122626694472471
﻿99400078450,Jardins de Joan Fuster i Ortells,2004-03-30T16:56:50+02:00,30409,Carrer De Bac De Roda,69,Diagonal Mar I El Front Marítim Del Poblenou,10,Sant Martí,8005,Barcelona,55737068,Parcs i jardins,Planol BCN >> Cultura i lleure >> Parcs i jardins >> Parcs i jardins,651,65103002006000,434017.2529968843,4583720.960605649,41.40232349200489,2.2106231077244987
﻿92086027651,La Font de la Budellera *Parc Metropolità,1988-07-12T00:00:00+02:00,50304,Gabriel Ferrater,22,"Vallvidrera, El Tibidabo I Les Planes",5,Sarrià-Sant Gervasi,8017,Barcelona,55737068,Parcs i jardins,Planol BCN >> Cultura i lleure >> Parcs i jardins >> Parcs i jardins,651,65103002006000,425506.84434465173,4585238.065045343,41.41524382456094,2.1086342209204902
﻿99117134859,Jardins Interior d'Illa de Clotilde Cerdà,1999-04-27T00:00:00+02:00,197302,Carrer De La Marina,5,El Fort Pienc,2,Eixample,8013,Barcelona,55737069,Interiors d'illa,Planol BCN >> Cultura i lleure >> Parcs i jardins >> Interiors d'illa,651,65103002006001,431369.9617523292,4583548.582760089,41.4005493193399,2.178975150453768
﻿99400345117,Jardins Emília Miret i Soler,2014-06-17T14:32:03+02:00,134357,Ptge Rosa Leveroni,21,Pedralbes,4,Les Corts,8034,Barcelona,55737068,Parcs i jardins,Planol BCN >> Cultura i lleure >> Parcs i jardins >> Parcs i jardins,651,65103002006000,427004.57839711383,4582486.257209103,41.39059694605795,2.126885535770078
﻿92086030520,Jardins de la Torre de Les Aigües,1989-08-07T00:00:00+02:00,176801,Carrer De Roger De Llúria,7,La Dreta De L'Eixample,2,Eixample,8009,Barcelona,55737069,Interiors d'illa,Planol BCN >> Cultura i lleure >> Parcs i jardins >> Interiors d'illa,651,65103002006001,430540.97697704,4582728.34524999,41.39309052605406,2.169153046082549
﻿99400354571,Jardins Plaça de Can Fabra,2014-10-01T16:38:21+02:00,322007,Carrer Del Segre,60,Sant Andreu,9,Sant Andreu,8030,Barcelona,55737068,Parcs i jardins,Planol BCN >> Cultura i lleure >> Parcs i jardins >> Parcs i jardins,651,65103002006000,432472.51666145,4587355.00398294,41.434925914293984,2.191738858342075
﻿99400263163,Jardins Interior d'Illa de Maria Manonelles,2011-01-18T14:12:42+01:00,54509,Carrer De Calàbria,10,Sant Antoni,2,Eixample,8015,Barcelona,55737069,Interiors d'illa,Planol BCN >> Cultura i lleure >> Parcs i jardins >> Interiors d'illa,651,65103002006001,429696.66856075014,4580913.913124324,41.376675184893614,2.1592652707595708
﻿98301094052,Jardins,1998-10-28T00:00:00+01:00,700827,Avinguda Del Cardenal Vidal I Barraquer,41,La Vall D'Hebron,7,Horta-Guinardó,8035,Barcelona,55737068,Parcs i jardins,Planol BCN >> Cultura i lleure >> Parcs i jardins >> Parcs i jardins,651,65103002006000,428919.04393199505,4586549.734995301,41.42736654472414,2.1493051264770284
﻿99335120509,Jardins de Rubió i Lluch,1999-12-01T00:00:00+01:00,157909,Hospital,1,El Raval,1,Ciutat Vella,8001,Barcelona,55737068,Parcs i jardins,Planol BCN >> Cultura i lleure >> Parcs i jardins >> Parcs i jardins,651,65103002006000,430583.2568402671,4581395.4066077825,41.38108881941955,2.1698114685903156
﻿99400046382,Jardins Elisard Sala - Interior,2003-06-19T14:25:27+02:00,285104,C Robrenyo,18,Sants,3,Sants-Montjuïc,8014,Barcelona,55737068,Parcs i jardins,Planol BCN >> Cultura i lleure >> Parcs i jardins >> Parcs i jardins,651,65103002006000,427987.5500488878,4581526.488785479,41.38204129193082,2.138755877693606
﻿99400063301,Jardins de la Casa Elizalde,2003-10-16T13:21:59+02:00,350308,Carrer De València,7,La Dreta De L'Eixample,2,Eixample,8009,Barcelona,55737069,Interiors d'illa,Planol BCN >> Cultura i lleure >> Parcs i jardins >> Interiors d'illa,651,65103002006001,430270.61457029224,4582889.53696395,41.394518930348355,2.1659008246716773
﻿92086032290,Jardins de la Indústria,1990-02-20T00:00:00+01:00,161407,Carrer De La Indústria,6,La Sagrada Família,2,Eixample,8025,Barcelona,55737068,Parcs i jardins,Planol BCN >> Cultura i lleure >> Parcs i jardins >> Parcs i jardins,651,65103002006000,430713.69595801353,4584377.727540115,41.40796085984799,2.171030080755086
﻿98294134447,Parc de Carles I,1998-10-21T00:00:00+02:00,62609,Av Icària,67,La Vila Olímpica Del Poblenou,10,Sant Martí,8005,Barcelona,55737068,Parcs i jardins,Planol BCN >> Cultura i lleure >> Parcs i jardins >> Parcs i jardins,651,65103002006000,432569.4013575771,4582254.939621691,41.3889993175699,2.193466781947299
﻿99127085955,Jardinets de Salvador Espriu,1999-05-07T00:00:00+02:00,148307,Pg Gràcia,31,La Vila De Gràcia,6,Gràcia,8008,Barcelona,55737068,Parcs i jardins,Planol BCN >> Cultura i lleure >> Parcs i jardins >> Parcs i jardins,651,65103002006000,429696.96707746154,4583212.972690021,41.39738205805117,2.159002039604903
﻿94165112247,Jardins de la Tamarita,1994-06-14T00:00:00+02:00,302000,Pg Sant Gervasi,25,Sant Gervasi - La Bonanova,5,Sarrià-Sant Gervasi,8022,Barcelona,55737068,Parcs i jardins,Planol BCN >> Cultura i lleure >> Parcs i jardins >> Parcs i jardins,651,65103002006000,427733.1428334839,4584733.7584449155,41.41090504207735,2.1353308120104346
﻿99188084150,Jardins Cal Sèbio,1999-07-07T00:00:00+02:00,135203,Foc,12,La Marina Del Prat Vermell,3,Sants-Montjuïc,8038,Barcelona,55737068,Parcs i jardins,Planol BCN >> Cultura i lleure >> Parcs i jardins >> Parcs i jardins,651,65103002006000,428243.3691287091,4578869.1647849195,41.35813057147215,2.1421295392287054
﻿99335120020,Jardins Pl. Sol de Baix,1999-12-01T00:00:00+01:00,700721,Gerard Piera,19,Les Corts,4,Les Corts,8028,Barcelona,55737068,Parcs i jardins,Planol BCN >> Cultura i lleure >> Parcs i jardins >> Parcs i jardins,651,65103002006000,427228.2464129146,4581609.370813996,41.38271945689916,2.1296659137585396
﻿96261095328,Jardins de Màlaga,1996-09-17T00:00:00+02:00,285104,Robrenyo,18,Sants,3,Sants-Montjuïc,8029,Barcelona,55737068,Parcs i jardins,Planol BCN >> Cultura i lleure >> Parcs i jardins >> Parcs i jardins,651,65103002006000,428146.764476871,4581639.470716716,41.38307311248152,2.14064642439631
﻿99112134143,Jardins Rosa Luxemburg,1999-04-22T00:00:00+02:00,700827,Av Cardenal Vidal Barraquer,41,La Vall D'Hebron,7,Horta-Guinardó,8032,Barcelona,55737068,Parcs i jardins,Planol BCN >> Cultura i lleure >> Parcs i jardins >> Parcs i jardins,651,65103002006000,429214.616949192,4587090.288790216,41.43226118482405,2.152778867095455
﻿98274131202,Jardins de Can Miralletes,1998-10-01T00:00:00+02:00,297001,C Sant Antoni Maria Claret,64,El Camp De L'Arpa Del Clot,10,Sant Martí,8041,Barcelona,55737068,Parcs i jardins,Planol BCN >> Cultura i lleure >> Parcs i jardins >> Parcs i jardins,651,65103002006000,431352.7976084773,4585071.602905039,41.41426519749023,2.1785970770178253
﻿92086011976,Jardinets de l'Alguer,1985-04-01T00:00:00+02:00,213908,Avinguda De Mistral,10,Sant Antoni,2,Eixample,8015,Barcelona,55737068,Parcs i jardins,Planol BCN >> Cultura i lleure >> Parcs i jardins >> Parcs i jardins,651,65103002006000,429656.41282277,4581009.82243539,41.37753549088047,2.1587727843120508
﻿92086011981,Jardins Voltes d'en Cirés,1985-04-02T00:00:00+02:00,86902,C Nou De La Rambla,1,El Raval,1,Ciutat Vella,8001,Barcelona,55737068,Parcs i jardins,Planol BCN >> Cultura i lleure >> Parcs i jardins >> Parcs i jardins,651,65103002006000,430803.8807815508,4580975.808748594,41.37732863079318,2.1724976608238196
﻿99298123646,Jardins Hiroshima,1999-10-25T00:00:00+02:00,56504,Camèlies,33,El Baix Guinardó,7,Horta-Guinardó,8024,Barcelona,55737068,Parcs i jardins,Planol BCN >> Cultura i lleure >> Parcs i jardins >> Parcs i jardins,651,65103002006000,430348.3283757977,4585012.130279517,41.4136431206065,2.166586088461681
﻿99400354561,Parc de Montjuïc,2014-10-01T16:02:48+02:00,700690,Pg Migdia,11,El Poble-Sec,3,Sants-Montjuïc,8038,Barcelona,55737068,Parcs i jardins,Planol BCN >> Cultura i lleure >> Parcs i jardins >> Parcs i jardins,651,65103002006000,429719.0466974448,4579218.321684804,41.36140547477188,2.1597293853420427
﻿92086012013,Parc de Joan Miró,1985-05-07T00:00:00+02:00,18505,Carrer D'Aragó,9,La Nova Esquerra De L'Eixample,2,Eixample,8015,Barcelona,55737068,Parcs i jardins,Planol BCN >> Cultura i lleure >> Parcs i jardins >> Parcs i jardins,651,65103002006000,428701.2793742,4581163.7878957195,41.37883814100107,2.1473335958888007
﻿92086011935,Parc de la Font del Racó,1985-04-01T00:00:00+02:00,101008,Av Tibidabo,25,Sant Gervasi - La Bonanova,5,Sarrià-Sant Gervasi,8035,Barcelona,55737068,Parcs i jardins,Planol BCN >> Cultura i lleure >> Parcs i jardins >> Parcs i jardins,651,65103002006000,427363.56829785265,4585313.581712986,41.41609393601731,2.130839745769486
﻿92086010494,Jardins del Palau de Pedralbes,1990-03-12T00:00:00+01:00,144601,Av Diagonal,21,Pedralbes,4,Les Corts,8034,Barcelona,55737068,Parcs i jardins,Planol BCN >> Cultura i lleure >> Parcs i jardins >> Parcs i jardins,651,65103002006000,426293.53040473606,4582044.054369566,41.38654937434819,2.1184352989192647
﻿99400514880,Jardí Interior de la Casa de la Misericòrdia,2017-06-28T10:04:34+02:00,108506,Carrer D'Elisabets,1,El Raval,1,Ciutat Vella,8001,Barcelona,55737069,Interiors d'illa,Planol BCN >> Cultura i lleure >> Parcs i jardins >> Interiors d'illa,651,65103002006001,430498.291,4581664.181,41.38350225179667,2.1687645955837462
﻿99400389887,Jardins de Mercè Rovira,2015-06-23T11:24:21+02:00,156509,C Hondures,61,La Sagrera,9,Sant Andreu,8027,Barcelona,55737068,Parcs i jardins,Planol BCN >> Cultura i lleure >> Parcs i jardins >> Parcs i jardins,651,65103002006000,432166.65156041423,4585787.244093095,41.420779854123154,2.188254105304773
﻿99400452842,Jardins de la Plaça Sagrada Família,2016-06-13T12:39:23+02:00,292201,Pl Sagrada Família,6,La Sagrada Família,2,Eixample,8013,Barcelona,55737068,Parcs i jardins,Planol BCN >> Cultura i lleure >> Parcs i jardins >> Parcs i jardins,651,65103002006000,430857.5626973769,4583711.630065452,41.40197393230216,2.1728272813678537
﻿99400452850,Jardins de la plaça de Sant Cristòfol,2016-06-13T12:55:33+02:00,298810,Pl Sant Cristòfol,13,La Marina De Port,3,Sants-Montjuïc,8038,Barcelona,55737068,Parcs i jardins,Planol BCN >> Cultura i lleure >> Parcs i jardins >> Parcs i jardins,651,65103002006000,427779.142627858,4578951.768879186,41.35883305531073,2.136570351595846
﻿92086027340,Parc de les Corts,1988-06-09T00:00:00+02:00,227800,Nicaragua,19,Les Corts,4,Les Corts,8029,Barcelona,55737068,Parcs i jardins,Planol BCN >> Cultura i lleure >> Parcs i jardins >> Parcs i jardins,651,65103002006000,427814.78461379686,4582061.180530681,41.38684157051108,2.1366261847980823
﻿99400457299,Jardins de la Rambla de Sants,2016-08-22T13:55:45+02:00,17706,Carrer D'Antoni De Capmany,18,Sants,3,Sants-Montjuïc,8014,Barcelona,55737068,Parcs i jardins,Planol BCN >> Cultura i lleure >> Parcs i jardins >> Parcs i jardins,651,65103002006000,427453.6114690061,4580463.860043828,41.37242263913515,2.1324980431422143
﻿99400345123,Jardins del Doctor Samuel Hahnemann,2014-06-17T14:50:23+02:00,320704,Av Sarrià,26,Sant Gervasi - Galvany,5,Sarrià-Sant Gervasi,8017,Barcelona,55737068,Parcs i jardins,Planol BCN >> Cultura i lleure >> Parcs i jardins >> Parcs i jardins,651,65103002006000,427868.0839738562,4582629.567996212,41.39196559276461,2.1371959203557087
﻿99400558972,Jardí sud de la Masia de Can Fargues,2017-12-01T10:26:51+01:00,194406,Pg Maragall,36,La Font D'En Fargues,7,Horta-Guinardó,8032,Barcelona,55737068,Parcs i jardins,Planol BCN >> Cultura i lleure >> Parcs i jardins >> Parcs i jardins,651,65103002006000,430202.014471572,4586580.686960782,41.4277578202143,2.164654527288568
﻿99400063175,Jardins del Doctor Robert,2003-10-15T14:25:42+02:00,335100,Pl Tetuan,7,La Dreta De L'Eixample,2,Eixample,8010,Barcelona,55737068,Parcs i jardins,Planol BCN >> Cultura i lleure >> Parcs i jardins >> Parcs i jardins,651,65103002006000,431071.20079182007,4582881.262208816,41.394513419470094,2.1754773789935244
﻿99400715967,Jardí del Passeig Santa Madrona,2023-06-26T12:22:59.235222+02:00,316809,Passeig De Santa Madrona,11,El Poble-Sec,3,Sants-Montjuïc,8038,Barcelona,55737068,Parcs i jardins,Planol BCN >> Cultura i lleure >> Parcs i jardins >> Parcs i jardins,651,65103002006000,429582.419,4579882.252,41.36737335320753,2.158018965009194
﻿99400152910,Jardins Interior d'Illa d'Helena Maseras,2006-02-03T17:44:27+01:00,289105,Carrer Del Rosselló,8,L'Antiga Esquerra De L'Eixample,2,Eixample,8036,Barcelona,55737069,Interiors d'illa,Planol BCN >> Cultura i lleure >> Parcs i jardins >> Interiors d'illa,651,65103002006001,429213.6579352169,4582445.690074615,41.39042902342673,2.1533107565639185
﻿92086029921,Parc de Can Sabaté,1989-04-12T00:00:00+02:00,212406,C Mineria,13,La Marina De Port,3,Sants-Montjuïc,8038,Barcelona,55737068,Parcs i jardins,Planol BCN >> Cultura i lleure >> Parcs i jardins >> Parcs i jardins,651,65103002006000,427883.8954769356,4579565.986902864,41.36437449049291,2.137749555318519
﻿99400259236,Jardins d'Esteve Terradas,2010-11-12T13:59:41+01:00,116901,C Esteve Terradas,28,Vallcarca I Els Penitents,6,Gràcia,8023,Barcelona,55737068,Parcs i jardins,Planol BCN >> Cultura i lleure >> Parcs i jardins >> Parcs i jardins,651,65103002006000,428279.35046981985,4585008.9198784605,41.413432230810066,2.141832834710263
﻿92086030289,Parc de la Unitat,1989-06-06T00:00:00+02:00,186204,C Lloret De Mar,43,Horta,7,Horta-Guinardó,8031,Barcelona,55737068,Parcs i jardins,Planol BCN >> Cultura i lleure >> Parcs i jardins >> Parcs i jardins,651,65103002006000,429640.5107227569,4587534.926547223,41.43630327476819,2.1578240406820526
﻿99400234073,Jardins de Rosa Mª Arquimbau,2009-10-19T13:45:27+02:00,94300,C Cristóbal De Moura,71,Provençals Del Poblenou,10,Sant Martí,8019,Barcelona,55737068,Parcs i jardins,Planol BCN >> Cultura i lleure >> Parcs i jardins >> Parcs i jardins,651,65103002006000,433945.0044645356,4584914.842949454,41.41307054790584,2.209628537621381
﻿99400038912,Jardins Casa Sagnier,2003-05-06T14:26:04+02:00,50202,Carrer De Brusi,26,Sant Gervasi - Galvany,5,Sarrià-Sant Gervasi,8006,Barcelona,55737068,Parcs i jardins,Planol BCN >> Cultura i lleure >> Parcs i jardins >> Parcs i jardins,651,65103002006000,428492.2096748913,4583727.224421494,41.40190748902283,2.1445309541605844
﻿98223130028,Parc de les Cascades,1998-08-11T00:00:00+02:00,700654,Avinguda Del Litoral,3,La Barceloneta,1,Ciutat Vella,8005,Barcelona,55737068,Parcs i jardins,Planol BCN >> Cultura i lleure >> Parcs i jardins >> Parcs i jardins,651,65103002006000,432702.73035929,4581955.39997952,41.38631260802294,2.1950946466204972
﻿98224202525,Jardins Can Feu,1998-08-12T00:00:00+02:00,128059,Flos I Calcat,19,Les Corts,4,Les Corts,8034,Barcelona,55737068,Parcs i jardins,Planol BCN >> Cultura i lleure >> Parcs i jardins >> Parcs i jardins,651,65103002006000,427171.8917778976,4582454.26555732,41.390323977616085,2.1288904326716365
﻿98225175911,Jardins de Vil·la Cecília,1998-08-13T00:00:00+02:00,312808,Santa Amèlia,23,Sarrià,5,Sarrià-Sant Gervasi,8034,Barcelona,55737068,Parcs i jardins,Planol BCN >> Cultura i lleure >> Parcs i jardins >> Parcs i jardins,651,65103002006000,426596.64928456774,4582840.415665561,41.39374957203114,2.121963830470535
﻿99099132610,Jardins Sant Joan de Déu,1999-04-09T00:00:00+02:00,89605,Carrer De Constança,19,Les Corts,4,Les Corts,8029,Barcelona,55737068,Parcs i jardins,Planol BCN >> Cultura i lleure >> Parcs i jardins >> Parcs i jardins,651,65103002006000,427727.416,4582261.446,41.3886374373518,2.1355574312182064
﻿99106121848,Jardins Can Farrero,1999-04-16T00:00:00+02:00,369408,Pg Zona Franca,13,La Marina De Port,3,Sants-Montjuïc,8038,Barcelona,55737068,Parcs i jardins,Planol BCN >> Cultura i lleure >> Parcs i jardins >> Parcs i jardins,651,65103002006000,428182.2157367921,4578807.991369447,41.35757415117613,2.141405753452258
﻿99400191003,Parc de la Primavera,2007-09-26T11:08:35+02:00,86902,C Nou De La Rambla,11,El Poble-Sec,3,Sants-Montjuïc,8004,Barcelona,55737068,Parcs i jardins,Planol BCN >> Cultura i lleure >> Parcs i jardins >> Parcs i jardins,651,65103002006000,430239.2994283526,4580219.047020415,41.370463961160546,2.1658337161656225
﻿98329120215,Jardí d'Elies Ortiz,1998-11-25T00:00:00+01:00,369408,Pg Zona Franca,13,La Marina De Port,3,Sants-Montjuïc,8038,Barcelona,55737068,Parcs i jardins,Planol BCN >> Cultura i lleure >> Parcs i jardins >> Parcs i jardins,651,65103002006000,428327.7383469904,4578685.297598812,41.3564820545708,2.1431598087414914
﻿99400349080,Jardins de Piscines i Esports,2014-08-07T09:44:58+02:00,101904,Carrer Del Doctor Fleming,26,Sant Gervasi - Galvany,5,Sarrià-Sant Gervasi,8017,Barcelona,55737068,Parcs i jardins,Planol BCN >> Cultura i lleure >> Parcs i jardins >> Parcs i jardins,651,65103002006000,427736.6660204301,4582761.42091923,41.39314134177889,2.1356084071087156
﻿99133092609,Jardins del Clot de la Mel,1999-05-13T00:00:00+02:00,180401,C Lope De Vega,65,El Clot,10,Sant Martí,8018,Barcelona,55737068,Parcs i jardins,Planol BCN >> Cultura i lleure >> Parcs i jardins >> Parcs i jardins,651,65103002006000,432660.8159665571,4584766.121146274,41.41162448134339,2.1942807632698473
﻿99329085212,Jardins Laribal,1999-11-25T00:00:00+01:00,316809,Pg Santa Madrona,11,El Poble-Sec,3,Sants-Montjuïc,8038,Barcelona,55737068,Parcs i jardins,Planol BCN >> Cultura i lleure >> Parcs i jardins >> Parcs i jardins,651,65103002006000,429622.02648506215,4579965.193371069,41.36812384413011,2.158482875531215
﻿99400354562,Parc Plaça de Sóller,2014-10-01T16:09:07+02:00,327703,Pl Sóller,45,Porta,8,Nou Barris,8016,Barcelona,55737068,Parcs i jardins,Planol BCN >> Cultura i lleure >> Parcs i jardins >> Parcs i jardins,651,65103002006000,431252.3551467488,4587212.719017523,41.43354088046919,2.1771519171502733
﻿99400355348,Parc de Xavier Montsalvatge,2014-10-09T10:00:53+02:00,701638,C Síndic Rahola,43,Horta,7,Horta-Guinardó,8035,Barcelona,55737068,Parcs i jardins,Planol BCN >> Cultura i lleure >> Parcs i jardins >> Parcs i jardins,651,65103002006000,429223.8686645158,4588017.583758802,41.44061374485372,2.1527809830615108
﻿99400355356,Parc del Maresme,2014-10-09T12:05:10+02:00,700892,Passeig De Garcia Fària,69,Diagonal Mar I El Front Marítim Del Poblenou,10,Sant Martí,8019,Barcelona,55737068,Parcs i jardins,Planol BCN >> Cultura i lleure >> Parcs i jardins >> Parcs i jardins,651,65103002006000,434259.83578808,4583802.9935034,41.403082214514825,2.213516046803923
﻿99400184041,Jardins de Carme Biada,2007-05-24T13:24:55+02:00,176801,Carrer De Roger De Llúria,7,La Dreta De L'Eixample,2,Eixample,8037,Barcelona,55737069,Interiors d'illa,Planol BCN >> Cultura i lleure >> Parcs i jardins >> Interiors d'illa,651,65103002006001,429974.6253600556,4583306.08583936,41.39824492278454,2.162312408547999
﻿99400333636,Jardins Plaça d'Henry Dunant,2014-01-08T13:49:36+01:00,90502,Carrer De Còrsega,6,La Sagrada Família,2,Eixample,8025,Barcelona,55737069,Interiors d'illa,Planol BCN >> Cultura i lleure >> Parcs i jardins >> Interiors d'illa,651,65103002006001,431215.82503614726,4584594.736526576,41.40995851184003,2.1770124965475017
﻿99400384847,Jardi de les Aromes,2015-04-29T11:18:00+02:00,230601,C Mare De Déu De Port,11,El Poble-Sec,3,Sants-Montjuïc,8038,Barcelona,55737068,Parcs i jardins,Planol BCN >> Cultura i lleure >> Parcs i jardins >> Parcs i jardins,651,65103002006000,428814.9956557809,4578448.88901117,41.35439601685321,2.149012074553124
﻿99400384855,Jardí de la Mediterrànea,2015-04-29T11:24:57+02:00,230601,C Mare De Déu De Port,11,El Poble-Sec,3,Sants-Montjuïc,8038,Barcelona,55737068,Parcs i jardins,Planol BCN >> Cultura i lleure >> Parcs i jardins >> Parcs i jardins,651,65103002006000,428814.9956557809,4578448.88901117,41.35439601685321,2.149012074553124
﻿99400226468,Jardins Interior d'Illa Càndida Pérez,2009-05-29T14:19:31+02:00,87009,Carrer Del Comte Borrell,10,Sant Antoni,2,Eixample,8015,Barcelona,55737069,Interiors d'illa,Planol BCN >> Cultura i lleure >> Parcs i jardins >> Interiors d'illa,651,65103002006001,429992.6664602,4580994.34459017,41.377425411135064,2.162795360343474
﻿99085103903,Jardins Frederica Montseny,1999-03-26T00:00:00+01:00,17557,Antic Del Guinardó,35,El Guinardó,7,Horta-Guinardó,8026,Barcelona,55737068,Parcs i jardins,Planol BCN >> Cultura i lleure >> Parcs i jardins >> Parcs i jardins,651,65103002006000,431045.06251016015,4585495.976705457,41.418061038351816,2.174866842344611
﻿99400297201,Jardins Interior d'Illa de Beatriu Pinós-Milany,2012-07-11T10:24:47+02:00,289105,Carrer Del Rosselló,8,L'Antiga Esquerra De L'Eixample,2,Eixample,8036,Barcelona,55737069,Interiors d'illa,Planol BCN >> Cultura i lleure >> Parcs i jardins >> Interiors d'illa,651,65103002006001,429020.62818068,4582258.080952681,41.38872228496438,2.151024116769772
﻿99400035350,Jardins de Caba,2003-03-07T14:21:33+01:00,52503,Pl Caba,19,Les Corts,4,Les Corts,8029,Barcelona,55737068,Parcs i jardins,Planol BCN >> Cultura i lleure >> Parcs i jardins >> Parcs i jardins,651,65103002006000,428241.7074921403,4581928.865912718,41.385688059832844,2.141747531666055
﻿99400291555,Jardins de Llucmajor,2012-04-24T00:00:00+02:00,186601,Pl De La República,48,La Guineueta,8,Nou Barris,8016,Barcelona,55737068,Parcs i jardins,Planol BCN >> Cultura i lleure >> Parcs i jardins >> Parcs i jardins,651,65103002006000,431035.6921238432,4587826.426994833,41.43904973751512,2.1744888744706907
﻿99400354178,Jardins d'Eduard Batiste Alentorn,2014-09-29T10:10:52+02:00,97807,C Dante Alighieri,37,El Carmel,7,Horta-Guinardó,8032,Barcelona,55737068,Parcs i jardins,Planol BCN >> Cultura i lleure >> Parcs i jardins >> Parcs i jardins,651,65103002006000,429599.76031805674,4586579.009852353,41.42769015831456,2.157447662343646
﻿99048090944,Jardins de l'Arboreda - Interior,1999-02-17T00:00:00+01:00,206607,Carrer De La Mecànica,13,La Marina De Port,3,Sants-Montjuïc,8038,Barcelona,55737068,Parcs i jardins,Planol BCN >> Cultura i lleure >> Parcs i jardins >> Parcs i jardins,651,65103002006000,427903.69635011005,4578934.45518927,41.35868827870441,2.1380613376395097
﻿99400228822,Jardins Interior d'Illa José Ignacio Urenda,2009-07-03T11:09:09+02:00,250802,Pg Peira,46,El Turó De La Peira,8,Nou Barris,8031,Barcelona,55737068,Parcs i jardins,Planol BCN >> Cultura i lleure >> Parcs i jardins >> Parcs i jardins,651,65103002006000,430679.417765139,4586931.52464035,41.430959022271544,2.1703273038218924
﻿95061113423,Jardins Vila Arrufat,1995-03-02T00:00:00+01:00,139805,Ganduxer,24,Les Tres Torres,5,Sarrià-Sant Gervasi,8022,Barcelona,55737068,Parcs i jardins,Planol BCN >> Cultura i lleure >> Parcs i jardins >> Parcs i jardins,651,65103002006000,427574.5726345434,4583521.073236874,41.39996863404373,2.1335788480441584
﻿99400178764,Jardins d'Ernest Lluch,2007-03-01T12:07:05+01:00,65200,C Cardenal Reig,20,La Maternitat I Sant Ramon,4,Les Corts,8028,Barcelona,55737068,Parcs i jardins,Planol BCN >> Cultura i lleure >> Parcs i jardins >> Parcs i jardins,651,65103002006000,425853.7158798143,4581137.001125631,41.378339528442744,2.1132864987094315
﻿95125123838,Parc de la Font Florida,1995-05-05T00:00:00+02:00,169409,G.V. Corts Catalanes,14,La Font De La Guatlla,3,Sants-Montjuïc,8004,Barcelona,55737068,Parcs i jardins,Planol BCN >> Cultura i lleure >> Parcs i jardins >> Parcs i jardins,651,65103002006000,428164.66164525656,4580036.186371264,41.368634514222805,2.14105045396157
﻿99400378255,Jardí de les Alzines,2015-02-19T18:27:39+01:00,146902,Pl Glòries Catalanes,5,El Fort Pienc,2,Eixample,8013,Barcelona,55737068,Parcs i jardins,Planol BCN >> Cultura i lleure >> Parcs i jardins >> Parcs i jardins,651,65103002006000,431921.89836613013,4583664.700739085,41.40164208118341,2.185564297133557
﻿95125124016,Jardins de Baró de Viver,1995-05-05T00:00:00+02:00,57609,Campins,58,Baró De Viver,9,Sant Andreu,8030,Barcelona,55737068,Parcs i jardins,Planol BCN >> Cultura i lleure >> Parcs i jardins >> Parcs i jardins,651,65103002006000,433067.763227152,4588724.809652938,41.44731312584859,2.19871115503559
﻿99400378276,Espai enjardinat,2015-02-19T19:18:14+01:00,144601,Av Diagonal,66,El Parc I La Llacuna Del Poblenou,10,Sant Martí,8018,Barcelona,55737068,Parcs i jardins,Planol BCN >> Cultura i lleure >> Parcs i jardins >> Parcs i jardins,651,65103002006000,432218.25842978345,4583947.520040293,41.40421438991055,2.189077717717574
﻿99400031860,Jardí dels Indians,2003-01-13T11:49:39+01:00,168905,C Jordi De Sant Jordi,62,El Congrés I Els Indians,9,Sant Andreu,8027,Barcelona,55737068,Parcs i jardins,Planol BCN >> Cultura i lleure >> Parcs i jardins >> Parcs i jardins,651,65103002006000,431739.7736743266,4585939.512523112,41.42211513121085,2.1831290669497436
﻿95345112746,Jardins Maluquer,1995-12-11T00:00:00+01:00,190904,Ptge Maluquer,25,Sant Gervasi - La Bonanova,5,Sarrià-Sant Gervasi,8022,Barcelona,55737068,Parcs i jardins,Planol BCN >> Cultura i lleure >> Parcs i jardins >> Parcs i jardins,651,65103002006000,427788.0033317808,4584588.657871396,41.40960311452634,2.1360044594209735
﻿95081125403,Parc Can Ponsic,1995-03-22T00:00:00+01:00,110202,Enric Giménez,23,Sarrià,5,Sarrià-Sant Gervasi,8034,Barcelona,55737068,Parcs i jardins,Planol BCN >> Cultura i lleure >> Parcs i jardins >> Parcs i jardins,651,65103002006000,426389.9372372854,4583096.9711178625,41.39604135893955,2.1194602767606807
﻿99400226957,Jardins de Portolà,2009-06-05T11:59:38+02:00,263804,C Portolà,27,El Putxet I El Farró,5,Sarrià-Sant Gervasi,8023,Barcelona,55737068,Parcs i jardins,Planol BCN >> Cultura i lleure >> Parcs i jardins >> Parcs i jardins,651,65103002006000,428337.0589712634,4584718.206725037,41.410819046980855,2.14255769920195
﻿99036100235,Jardins del Baluard,1999-02-05T00:00:00+01:00,140203,Avinguda De Les Drassanes,1,El Raval,1,Ciutat Vella,8001,Barcelona,55737068,Parcs i jardins,Planol BCN >> Cultura i lleure >> Parcs i jardins >> Parcs i jardins,651,65103002006000,431100.12793211296,4580823.445296411,41.375981756802304,2.1760573876381613
﻿99278141813,Jardins Montbau,1999-10-05T00:00:00+02:00,260806,C Poesia,40,Montbau,7,Horta-Guinardó,8035,Barcelona,55737068,Parcs i jardins,Planol BCN >> Cultura i lleure >> Parcs i jardins >> Parcs i jardins,651,65103002006000,428368.32015530695,4587126.208262158,41.43250966110126,2.142646475130079
﻿96269141552,Parc de la Barceloneta,1996-09-25T00:00:00+02:00,197903,Passeig Marítim De La Barceloneta - Oriol Bohigas,3,La Barceloneta,1,Ciutat Vella,8003,Barcelona,55737068,Parcs i jardins,Planol BCN >> Cultura i lleure >> Parcs i jardins >> Parcs i jardins,651,65103002006000,432593.3004536,4581483.70569651,41.38205501687279,2.193838416918405
﻿99400165137,Jardins del Viver de Can Borni,2006-07-18T14:14:24+02:00,69517,Camí De Can Borni,39,Sant Genís Dels Agudells,7,Horta-Guinardó,8035,Barcelona,55737068,Parcs i jardins,Planol BCN >> Cultura i lleure >> Parcs i jardins >> Parcs i jardins,651,65103002006000,426670.2598645829,4586074.7701440295,41.422886630339505,2.1224523282306436
﻿99400582805,Jardí d'Assumpció Català,2018-04-11T12:47:56+02:00,87009,C Comte Borrell,9,La Nova Esquerra De L'Eixample,2,Eixample,8029,Barcelona,55737068,Parcs i jardins,Planol BCN >> Cultura i lleure >> Parcs i jardins >> Parcs i jardins,651,65103002006000,428636.1525690006,4582347.535910911,41.38949395352345,2.1464153989529833
﻿96017105547,Jardins del Palau Robert,1996-01-17T00:00:00+01:00,148307,Passeig De Gràcia,7,La Dreta De L'Eixample,2,Eixample,8008,Barcelona,55737069,Interiors d'illa,Planol BCN >> Cultura i lleure >> Parcs i jardins >> Interiors d'illa,651,65103002006001,429740.50298186,4583073.71379627,41.396131607667456,2.159538941393651
﻿99400214753,Jardins de Rodrigo Caro,2008-10-07T12:31:54+02:00,26605,C Artesania,50,Les Roquetes,8,Nou Barris,8042,Barcelona,55737068,Parcs i jardins,Planol BCN >> Cultura i lleure >> Parcs i jardins >> Parcs i jardins,651,65103002006000,430764.95758665673,4588625.4031577995,41.44622249771628,2.171156906606161
﻿92321101155,Jardins de Sant Pau del Camp,1992-11-16T00:00:00+01:00,308505,Sant Pau,1,El Raval,1,Ciutat Vella,8001,Barcelona,55737068,Parcs i jardins,Planol BCN >> Cultura i lleure >> Parcs i jardins >> Parcs i jardins,651,65103002006000,430536.8213968287,4580886.447566119,41.37650077245051,2.16931451433491
﻿99400214912,Parc de Joan Reventós,2008-10-08T16:52:12+02:00,273852,C Ràfols,23,Sarrià,5,Sarrià-Sant Gervasi,8034,Barcelona,55737068,Parcs i jardins,Planol BCN >> Cultura i lleure >> Parcs i jardins >> Parcs i jardins,651,65103002006000,426194.74999634107,4583724.545954011,41.40167574739713,2.117049167834166
﻿99400273743,Jardins de Miquel Martí i Pol,2011-07-01T14:38:48+02:00,183603,C Llacuna,66,El Parc I La Llacuna Del Poblenou,10,Sant Martí,8018,Barcelona,55737068,Parcs i jardins,Planol BCN >> Cultura i lleure >> Parcs i jardins >> Parcs i jardins,651,65103002006000,432705.68070298375,4583904.9225530615,41.40387167479853,2.1949132863342933
﻿99188085150,Jardins Mestre Balcells,1999-07-07T00:00:00+02:00,310802,C Sant Salvador,31,La Vila De Gràcia,6,Gràcia,8024,Barcelona,55737068,Parcs i jardins,Planol BCN >> Cultura i lleure >> Parcs i jardins >> Parcs i jardins,651,65103002006000,429292.1907766737,4584326.909741469,41.4073793795033,2.154030305196104
﻿99329084824,Jardins de Frida Kahlo,1999-11-25T00:00:00+01:00,41201,Berruguete,41,La Vall D'Hebron,7,Horta-Guinardó,8035,Barcelona,55737068,Parcs i jardins,Planol BCN >> Cultura i lleure >> Parcs i jardins >> Parcs i jardins,651,65103002006000,428773.1962018639,4587239.463244215,41.4335657076192,2.1474785392754883
﻿95192110938,Jardins de Can Castelló,1995-07-11T00:00:00+02:00,134404,Carrer De Freixa,26,Sant Gervasi - Galvany,5,Sarrià-Sant Gervasi,8021,Barcelona,55737068,Parcs i jardins,Planol BCN >> Cultura i lleure >> Parcs i jardins >> Parcs i jardins,651,65103002006000,428125.3163066493,4583412.537413015,41.39904051559378,2.140179532716965
﻿97202125642,Jardins Pedro Muñoz Seca,1997-07-21T00:00:00+02:00,25500,Arquitectura,40,Montbau,7,Horta-Guinardó,8035,Barcelona,55737068,Parcs i jardins,Planol BCN >> Cultura i lleure >> Parcs i jardins >> Parcs i jardins,651,65103002006000,428204.3088599446,4586596.965384154,41.427728364374765,2.140746507324218
﻿99400039577,Jardins del Rector Oliveras,2003-05-13T13:56:48+02:00,246601,Passatge Del Rector Oliveras,7,La Dreta De L'Eixample,2,Eixample,8009,Barcelona,55737069,Interiors d'illa,Planol BCN >> Cultura i lleure >> Parcs i jardins >> Interiors d'illa,651,65103002006001,430432.66098944057,4582918.910710769,41.39479752399747,2.1678356444626248
﻿99400078413,Jardí de Joana Tomàs,2004-03-30T14:15:11+02:00,350308,C València,65,El Clot,10,Sant Martí,8026,Barcelona,55737068,Parcs i jardins,Planol BCN >> Cultura i lleure >> Parcs i jardins >> Parcs i jardins,651,65103002006000,432196.30946396024,4584836.399368278,41.412218402872526,2.1887155595871257
﻿99400078447,Jardins de Jaime Gil de Biedma,2004-03-30T16:42:13+02:00,115603,Carrer D'Espronceda,69,Diagonal Mar I El Front Marítim Del Poblenou,10,Sant Martí,8005,Barcelona,55737068,Parcs i jardins,Planol BCN >> Cultura i lleure >> Parcs i jardins >> Parcs i jardins,651,65103002006000,433887.4622777627,4583619.842566543,41.401402084881234,2.209081556822592
﻿99400078455,Jardins de Manuel Sacristán,2004-03-30T17:12:23+02:00,267907,Carrer De Provençals,69,Diagonal Mar I El Front Marítim Del Poblenou,10,Sant Martí,8019,Barcelona,55737068,Parcs i jardins,Planol BCN >> Cultura i lleure >> Parcs i jardins >> Parcs i jardins,651,65103002006000,434246.93473788886,4583861.5272794245,41.40360835888967,2.213355360398716
﻿92146102048,Jardins Caterina Albert,1992-05-25T00:00:00+02:00,289105,Rosselló,32,El Camp D'En Grassot I Gràcia Nova,6,Gràcia,8025,Barcelona,55737068,Parcs i jardins,Planol BCN >> Cultura i lleure >> Parcs i jardins >> Parcs i jardins,651,65103002006000,430670.61648006405,4583874.820435596,41.40342763386252,2.170572319182133
﻿94129141313,Jardins Amargós,1994-05-09T00:00:00+02:00,316809,Pg Santa Madrona,11,El Poble-Sec,3,Sants-Montjuïc,8038,Barcelona,55737068,Parcs i jardins,Planol BCN >> Cultura i lleure >> Parcs i jardins >> Parcs i jardins,651,65103002006000,429622.02648506215,4579965.193371069,41.36812384413011,2.158482875531215
﻿99400064283,Jardí Botànic Històric,2003-10-27T14:34:05+01:00,217002,Avinguda Dels Montanyans,11,El Poble-Sec,3,Sants-Montjuïc,8038,Barcelona,55737068,Parcs i jardins,Planol BCN >> Cultura i lleure >> Parcs i jardins >> Parcs i jardins,651,65103002006000,429104.56554352934,4579845.322433399,41.366998796852336,2.1523101998969025
﻿99400064371,Jardins de Celestina Vigneaux,2003-10-28T12:40:53+01:00,96000,C Cuyàs,16,La Bordeta,3,Sants-Montjuïc,8014,Barcelona,55737068,Parcs i jardins,Planol BCN >> Cultura i lleure >> Parcs i jardins >> Parcs i jardins,651,65103002006000,428179.4554659841,4580201.882756575,41.37012820294741,2.141207701348071
﻿92090124057,Jardins Mossèn Cinto Verdaguer,1992-03-30T00:00:00+02:00,213307,Av Miramar,11,El Poble-Sec,3,Sants-Montjuïc,8038,Barcelona,55737068,Parcs i jardins,Planol BCN >> Cultura i lleure >> Parcs i jardins >> Parcs i jardins,651,65103002006000,430004.881745107,4580042.173698919,41.36885056534847,2.1630513619866973
﻿99400679287,Interior d'Illa Motor Repris,2021-11-11T15:23:49.554798+01:00,169409,Gran Via De Les Corts Catalanes,5,El Fort Pienc,2,Eixample,8013,Barcelona,55737069,Interiors d'illa,Planol BCN >> Cultura i lleure >> Parcs i jardins >> Interiors d'illa,651,65103002006001,431686.29552374,4583556.25897077,41.40064539572248,2.182758231950628
﻿99400454253,Jardins Interior d'Illa de Montserrat Figueras,2016-06-28T13:02:20+02:00,90502,Carrer De Còrsega,8,L'Antiga Esquerra De L'Eixample,2,Eixample,8036,Barcelona,55737069,Interiors d'illa,Planol BCN >> Cultura i lleure >> Parcs i jardins >> Interiors d'illa,651,65103002006001,429018.71219984005,4582442.73510612,41.390385228782456,2.1509795641937965
﻿99400385111,Jardí de Maria Teresa Vernet i Real,2015-04-30T12:49:49+02:00,257200,C Pintor Tapiró,20,La Maternitat I Sant Ramon,4,Les Corts,8028,Barcelona,55737068,Parcs i jardins,Planol BCN >> Cultura i lleure >> Parcs i jardins >> Parcs i jardins,651,65103002006000,426331.16625398374,4581061.811963934,41.3777061847001,2.119004804837095
﻿99400643473,Jardins del Doctor Pla i Armengol,2019-12-09T12:03:22+01:00,365702,Av Mare De Déu De Montserrat,35,El Guinardó,7,Horta-Guinardó,8041,Barcelona,55737068,Parcs i jardins,Planol BCN >> Cultura i lleure >> Parcs i jardins >> Parcs i jardins,651,65103002006000,430629.4495921007,4585271.804805748,41.416006230644655,2.1699197153982093
﻿99400621049,Parc Bederrida - Zona d'Us Esportiu,2019-02-27T00:00:00+01:00,247353,C Pascual I Vila,20,La Maternitat I Sant Ramon,4,Les Corts,8028,Barcelona,55737068,Parcs i jardins,Planol BCN >> Cultura i lleure >> Parcs i jardins >> Parcs i jardins,651,65103002006000,426269.3187177075,4581689.840820887,41.3833569079077,2.1181888535525486
﻿99400388631,Jardins de Ramon Aramon i Serra,2015-06-11T12:42:21+02:00,360301,C Vidriol,15,Hostafrancs,3,Sants-Montjuïc,8014,Barcelona,55737068,Parcs i jardins,Planol BCN >> Cultura i lleure >> Parcs i jardins >> Parcs i jardins,651,65103002006000,428637.83490188775,4580701.0839800425,41.37466510611165,2.1466294160580546
﻿99400228802,Jardins de William Shakespeare,2009-07-03T09:30:43+02:00,106001,C Dulcet,21,Pedralbes,4,Les Corts,8034,Barcelona,55737068,Parcs i jardins,Planol BCN >> Cultura i lleure >> Parcs i jardins >> Parcs i jardins,651,65103002006000,426245.5537785692,4582466.129240762,41.39034641953064,2.1178101517815517
﻿99400240383,Jardins de Simone de Beauvoir,2010-02-01T14:06:44+01:00,42306,C Bilbao,68,El Poblenou,10,Sant Martí,8005,Barcelona,55737068,Parcs i jardins,Planol BCN >> Cultura i lleure >> Parcs i jardins >> Parcs i jardins,651,65103002006000,433538.6536445802,4583732.376400596,41.40238689007209,2.204896714047769
﻿99400550297,Jardins d'Ana Figuera,2017-11-02T13:21:41+01:00,700731,C Jordi Rubió I Balaguer,72,Sant Martí De Provençals,10,Sant Martí,8020,Barcelona,55737068,Parcs i jardins,Planol BCN >> Cultura i lleure >> Parcs i jardins >> Parcs i jardins,651,65103002006000,433339.3859603768,4585299.232532115,41.416482630468536,2.202340412388594
﻿99400660920,Interior d'Illa de les Treballadores de la Numax,2020-12-09T11:16:16+01:00,701930,Jardins De Les Treballadores De La Numax,6,La Sagrada Família,2,Eixample,8025,Barcelona,55737069,Interiors d'illa,Planol BCN >> Cultura i lleure >> Parcs i jardins >> Interiors d'illa,651,65103002006001,431084.6734950748,4584215.481391486,41.40653145412249,2.1754866422691004
﻿99400661060,Interior d'Illa Àntic Cinema Novedades,2020-12-10T16:42:47+01:00,71600,Carrer De Casp,7,La Dreta De L'Eixample,2,Eixample,8010,Barcelona,55737069,Interiors d'illa,Planol BCN >> Cultura i lleure >> Parcs i jardins >> Interiors d'illa,651,65103002006001,430607.19831482,4582272.002813459,41.388986113064114,2.1699973675495325
﻿92086029922,Parc de Sant Martí,1989-04-12T00:00:00+02:00,208205,C Menorca,72,Sant Martí De Provençals,10,Sant Martí,8020,Barcelona,55737068,Parcs i jardins,Planol BCN >> Cultura i lleure >> Parcs i jardins >> Parcs i jardins,651,65103002006000,432984.48964060727,4585681.547286327,41.41989650584673,2.198051769477209
﻿99400063147,Jardins Interior d'Illa de Paula Montal,2003-10-15T13:25:35+02:00,361406,Carrer De Viladomat,9,La Nova Esquerra De L'Eixample,2,Eixample,8015,Barcelona,55737069,Interiors d'illa,Planol BCN >> Cultura i lleure >> Parcs i jardins >> Interiors d'illa,651,65103002006001,429294.217,4581481.649,41.381753328658114,2.1543867487969446
﻿99400063226,Interior d'Illa Placeta de Maria Luz Morales,2003-10-16T09:58:42+02:00,51205,Carrer De Buenos Aires,8,L'Antiga Esquerra De L'Eixample,2,Eixample,8036,Barcelona,55737069,Interiors d'illa,Planol BCN >> Cultura i lleure >> Parcs i jardins >> Interiors d'illa,651,65103002006001,428656.11231043097,4582652.065943911,41.392238511822384,2.1466182423244065
﻿92086012240,Jardins Can Mantega,1985-04-15T00:00:00+02:00,172403,Joan Güell,18,Sants,3,Sants-Montjuïc,8028,Barcelona,55737068,Parcs i jardins,Planol BCN >> Cultura i lleure >> Parcs i jardins >> Parcs i jardins,651,65103002006000,427536.67251894006,4581124.369613892,41.378379079024555,2.1334122098021124
﻿99400178859,Àrea Panoràmica (Camí del Cel),2007-03-02T00:00:00+01:00,335701,Pl Tibidabo,22,"Vallvidrera, El Tibidabo I Les Planes",5,Sarrià-Sant Gervasi,8035,Barcelona,55737068,Parcs i jardins,Planol BCN >> Cultura i lleure >> Parcs i jardins >> Parcs i jardins,651,65103002006000,426447.0380577354,4585955.684256196,41.42179367685009,2.1197957867323467
﻿99076101840,Jardins Mercè Plantada,1999-03-17T00:00:00+01:00,4908,Àlaba,67,La Vila Olímpica Del Poblenou,10,Sant Martí,8005,Barcelona,55737068,Parcs i jardins,Planol BCN >> Cultura i lleure >> Parcs i jardins >> Parcs i jardins,651,65103002006000,432664.3152986861,4582936.172994106,41.395142955127184,2.1945261956868345
﻿99400149674,Jardí d'Espargiment de Cendres,2005-12-20T12:03:00+01:00,230601,C Mare De Déu De Port,11,El Poble-Sec,3,Sants-Montjuïc,8038,Barcelona,55737068,Parcs i jardins,Planol BCN >> Cultura i lleure >> Parcs i jardins >> Parcs i jardins,651,65103002006000,428814.9766559628,4578448.90301103,41.35439614126615,2.149011845799688
﻿99400078973,Jardí de les Escultures,2004-04-05T11:03:39+02:00,198702,Av Francesc Ferrer Guàrdia,11,El Poble-Sec,3,Sants-Montjuïc,8038,Barcelona,55737068,Parcs i jardins,Planol BCN >> Cultura i lleure >> Parcs i jardins >> Parcs i jardins,651,65103002006000,428641.3109980409,4580088.501961428,41.36914809976752,2.1467430809493484
﻿99400328900,Parc Torrent Maduixer,2013-10-25T12:21:13+02:00,170000,C Josep Garí,25,Sant Gervasi - La Bonanova,5,Sarrià-Sant Gervasi,8035,Barcelona,55737068,Parcs i jardins,Planol BCN >> Cultura i lleure >> Parcs i jardins >> Parcs i jardins,651,65103002006000,427743.56461634726,4585273.777182398,41.41576969170739,2.1353909998606846
﻿99400146184,Jardins de Vil·la Florida,2005-10-28T11:36:57+02:00,223606,C Muntaner,25,Sant Gervasi - La Bonanova,5,Sarrià-Sant Gervasi,8022,Barcelona,55737068,Parcs i jardins,Planol BCN >> Cultura i lleure >> Parcs i jardins >> Parcs i jardins,651,65103002006000,427725.1780428968,4584118.764439972,41.405365338998074,2.135308972460361
﻿99400183881,Jardins de Fabià Puigserver,2007-05-22T16:19:12+02:00,178400,C Lleida,11,El Poble-Sec,3,Sants-Montjuïc,8004,Barcelona,55737068,Parcs i jardins,Planol BCN >> Cultura i lleure >> Parcs i jardins >> Parcs i jardins,651,65103002006000,429523.36438835174,4580234.221723734,41.37053826503267,2.1572720150890574
﻿97142135707,Jardins Manuel de Pedrolo,1997-05-22T00:00:00+02:00,100800,Carrer De La Diputació,5,El Fort Pienc,2,Eixample,8013,Barcelona,55737069,Interiors d'illa,Planol BCN >> Cultura i lleure >> Parcs i jardins >> Interiors d'illa,651,65103002006001,431500.7674792511,4583559.138683651,41.400655547799026,2.1805386383036622
﻿97142135851,Jardins Interior d'Illa de Cèsar Martinell,1997-05-22T00:00:00+02:00,363809,C Villarroel,8,L'Antiga Esquerra De L'Eixample,2,Eixample,8011,Barcelona,55737069,Interiors d'illa,Planol BCN >> Cultura i lleure >> Parcs i jardins >> Interiors d'illa,651,65103002006001,429695.8134089795,4581679.9526473265,41.38357457590137,2.1591661776855657
﻿97209125302,Parc de la Vall d'Hebron,1997-07-28T00:00:00+02:00,172709,Juan De Mena,41,La Vall D'Hebron,7,Horta-Guinardó,8032,Barcelona,55737068,Parcs i jardins,Planol BCN >> Cultura i lleure >> Parcs i jardins >> Parcs i jardins,651,65103002006000,428847.085539423,4586980.769780192,41.43124231829737,2.1483932883821786
﻿99361132137,Jardins de Gandhi,1999-12-27T00:00:00+01:00,110009,Ramon Turró,68,El Poblenou,10,Sant Martí,8005,Barcelona,55737068,Parcs i jardins,Planol BCN >> Cultura i lleure >> Parcs i jardins >> Parcs i jardins,651,65103002006000,433750.4065465539,4583939.12542574,41.40426650204561,2.2074071363962013
﻿1288121408,Jardins de Can Senillosa,2001-10-15T00:00:00+02:00,130709,Fontcoberta,23,Sarrià,5,Sarrià-Sant Gervasi,8034,Barcelona,55737068,Parcs i jardins,Planol BCN >> Cultura i lleure >> Parcs i jardins >> Parcs i jardins,651,65103002006000,426777.8624986659,4582954.6685902625,41.39479511770534,2.1241174089578516
﻿99400076724,Jardins dels Drets Humans,2004-03-15T12:30:24+01:00,137300,C Foneria,13,La Marina De Port,3,Sants-Montjuïc,8038,Barcelona,55737068,Parcs i jardins,Planol BCN >> Cultura i lleure >> Parcs i jardins >> Parcs i jardins,651,65103002006000,427793.14943931415,4579195.172504869,41.361026562681914,2.1367088188150576
﻿99400176467,Jardins de Victòria de los Ángeles,2007-01-26T14:11:03+01:00,216906,C Montalegre,1,El Raval,1,Ciutat Vella,8001,Barcelona,55737068,Parcs i jardins,Planol BCN >> Cultura i lleure >> Parcs i jardins >> Parcs i jardins,651,65103002006000,430379.0357577841,4581724.135357528,41.384031930477754,2.167331566974877
﻿1086092955,Jardins dels Horts de Sant Pau,2001-03-27T00:00:00+02:00,330300,Tàpies,1,El Raval,1,Ciutat Vella,8001,Barcelona,55737068,Parcs i jardins,Planol BCN >> Cultura i lleure >> Parcs i jardins >> Parcs i jardins,651,65103002006000,430617.42461753485,4580864.654795406,41.37631144514348,2.1702808171636128
﻿92086012247,Jardins de Moragas,1985-04-15T00:00:00+02:00,332204,Tavern,26,Sant Gervasi - Galvany,5,Sarrià-Sant Gervasi,8021,Barcelona,55737068,Parcs i jardins,Planol BCN >> Cultura i lleure >> Parcs i jardins >> Parcs i jardins,651,65103002006000,428576.45695104206,4583281.216789526,41.397897961749294,2.145591339075409
﻿99400487382,Interior d'Illa Sidó Lledoner,2017-03-23T18:51:19+01:00,184005,Carrer Del Lledoner,39,Sant Genís Dels Agudells,7,Horta-Guinardó,8035,Barcelona,55737069,Interiors d'illa,Planol BCN >> Cultura i lleure >> Parcs i jardins >> Interiors d'illa,651,65103002006001,428031.87459923595,4586290.6223328,41.42495383985393,2.138719495862864
﻿92086011921,Parc de la Ciutadella,1988-07-13T00:00:00+02:00,201400,Passeig De Picasso,4,"Sant Pere, Santa Caterina I La Ribera",1,Ciutat Vella,8003,Barcelona,55737068,Parcs i jardins,Planol BCN >> Cultura i lleure >> Parcs i jardins >> Parcs i jardins,651,65103002006000,431890.6660134717,4581965.649308547,41.38633657544665,2.185381778970792
﻿92086011925,Jardins de Ramon Margalef i López,1985-04-01T00:00:00+02:00,116402,Av Estadi,11,El Poble-Sec,3,Sants-Montjuïc,8038,Barcelona,55737068,Parcs i jardins,Planol BCN >> Cultura i lleure >> Parcs i jardins >> Parcs i jardins,651,65103002006000,429158.3870412853,4579744.284431306,41.36609351846864,2.152965473661524
﻿92086011933,Parc del Castell de l'Oreneta,1985-04-01T00:00:00+02:00,218402,C Montevideo,23,Sarrià,5,Sarrià-Sant Gervasi,8034,Barcelona,55737068,Parcs i jardins,Planol BCN >> Cultura i lleure >> Parcs i jardins >> Parcs i jardins,651,65103002006000,425786.80201446573,4583476.280286147,41.39940218424315,2.112199777559347
﻿92086011942,Turó Park - Parc del Poeta Eduard Marquina,1985-04-01T00:00:00+02:00,143507,Av Pau Casals,26,Sant Gervasi - Galvany,5,Sarrià-Sant Gervasi,8021,Barcelona,55737068,Parcs i jardins,Planol BCN >> Cultura i lleure >> Parcs i jardins >> Parcs i jardins,651,65103002006000,428265.0380661559,4582863.1898014555,41.39410523623182,2.1419158924657906
﻿92086012472,Jardins de Magalí,1985-04-23T00:00:00+02:00,352904,C Vallespir,19,Les Corts,4,Les Corts,8014,Barcelona,55737068,Parcs i jardins,Planol BCN >> Cultura i lleure >> Parcs i jardins >> Parcs i jardins,651,65103002006000,427553.9961943073,4581849.695538634,41.38491336528375,2.1335326462367803
﻿92086012405,Jardins Joaquim Ruyra,1985-04-22T00:00:00+02:00,110803,Entença,19,Les Corts,4,Les Corts,8029,Barcelona,55737068,Parcs i jardins,Planol BCN >> Cultura i lleure >> Parcs i jardins >> Parcs i jardins,651,65103002006000,427965.0340692955,4582453.595733766,41.390389369333256,2.138376389148415
﻿99400451948,Jardí Històric,2016-06-02T00:00:00+02:00,223606,C Muntaner,26,Sant Gervasi - Galvany,5,Sarrià-Sant Gervasi,8021,Barcelona,55737068,Parcs i jardins,Planol BCN >> Cultura i lleure >> Parcs i jardins >> Parcs i jardins,651,65103002006000,428683.18495240336,4583099.925580482,41.39627461437971,2.1468892962598556
﻿99400575441,Jardins de Josep Trueta,2018-01-24T16:32:18+01:00,186703,C Llull,68,El Poblenou,10,Sant Martí,8005,Barcelona,55737068,Parcs i jardins,Planol BCN >> Cultura i lleure >> Parcs i jardins >> Parcs i jardins,651,65103002006000,433601.4640036655,4583887.824896852,41.40379216389054,2.2056310183411125
﻿99400575472,Jardins Can Xiringoi,2018-01-25T09:48:26+01:00,8603,C Costa I Cuxart,44,Vilapicina I La Torre Llobeta,8,Nou Barris,8016,Barcelona,55737068,Parcs i jardins,Planol BCN >> Cultura i lleure >> Parcs i jardins >> Parcs i jardins,651,65103002006000,431126.4275009533,4586567.144282181,41.42771563875548,2.175718380948309
﻿92086020872,Parc de la Creueta del Coll,1987-05-05T00:00:00+02:00,230000,Pg Mare De Déu Del Coll,29,El Coll,6,Gràcia,8023,Barcelona,55737068,Parcs i jardins,Planol BCN >> Cultura i lleure >> Parcs i jardins >> Parcs i jardins,651,65103002006000,428655.06968450494,4585652.736681833,41.419264262411424,2.1462520569914068
﻿92086011938,Jardins del Turó del Putxet,1985-04-01T00:00:00+02:00,191408,C Manacor,27,El Putxet I El Farró,5,Sarrià-Sant Gervasi,8023,Barcelona,55737068,Parcs i jardins,Planol BCN >> Cultura i lleure >> Parcs i jardins >> Parcs i jardins,651,65103002006000,428330.3421091046,4584377.223048406,41.40774734930597,2.1425177258809422
﻿92086011940,Parc de Monterols,1985-04-01T00:00:00+02:00,223606,Carrer De Muntaner,26,Sant Gervasi - Galvany,5,Sarrià-Sant Gervasi,8006,Barcelona,55737068,Parcs i jardins,Planol BCN >> Cultura i lleure >> Parcs i jardins >> Parcs i jardins,651,65103002006000,428094.2115477828,4583698.474617503,41.401613054797835,2.1397735122452017
﻿92086012496,Jardins Valent Petit,1985-05-24T00:00:00+02:00,160903,Pl Ildefons Cerdà,13,La Marina De Port,3,Sants-Montjuïc,8014,Barcelona,55737068,Parcs i jardins,Planol BCN >> Cultura i lleure >> Parcs i jardins >> Parcs i jardins,651,65103002006000,427764.8476215436,4579628.707264949,41.36492871730164,2.136318854001666
﻿99146140904,Jardins Jaume Planas i Alemany,1999-05-26T00:00:00+02:00,185700,Llobregós,37,El Carmel,7,Horta-Guinardó,8032,Barcelona,55737068,Parcs i jardins,Planol BCN >> Cultura i lleure >> Parcs i jardins >> Parcs i jardins,651,65103002006000,429248.41484586487,4586020.927217786,41.42263286964232,2.153308491000778
﻿99400054557,Parc dels Auditoris,2003-07-22T17:39:00+02:00,701612,Pl Fòrum,70,El Besòs I El Maresme,10,Sant Martí,8019,Barcelona,55737068,Parcs i jardins,Planol BCN >> Cultura i lleure >> Parcs i jardins >> Parcs i jardins,651,65103002006000,435261.96175924875,4584471.267529068,41.40918252937949,2.2254324620547092
﻿98294121049,Parc del Pla de Fornells,1998-10-21T00:00:00+02:00,267816,C Nou Barris,50,Les Roquetes,8,Nou Barris,8042,Barcelona,55737068,Parcs i jardins,Planol BCN >> Cultura i lleure >> Parcs i jardins >> Parcs i jardins,651,65103002006000,431388.5964935264,4588837.328221029,41.44818476886138,2.1785979471098837
﻿99400063150,Jardins Interior d'Illa de Flora Tristan,2003-10-15T13:34:00+02:00,238400,Carrer De Padilla,6,La Sagrada Família,2,Eixample,8013,Barcelona,55737069,Interiors d'illa,Planol BCN >> Cultura i lleure >> Parcs i jardins >> Interiors d'illa,651,65103002006001,431442.5599668346,4583941.892938824,41.40409793289094,2.1797990174583877
﻿99400689064,Jardins de l'Alzina,2022-03-31T10:10:23.013099+02:00,109203,Carrer De L'Encarnació,31,La Vila De Gràcia,6,Gràcia,8012,Barcelona,55737068,Parcs i jardins,Planol BCN >> Cultura i lleure >> Parcs i jardins >> Parcs i jardins,651,65103002006000,429674.209,4584122.423,41.40557115587016,2.1586241741465275
﻿99112132816,Jardins d'Antoni Puigvert,1999-04-22T00:00:00+02:00,325005,C Sicília,32,El Camp D'En Grassot I Gràcia Nova,6,Gràcia,8025,Barcelona,55737068,Parcs i jardins,Planol BCN >> Cultura i lleure >> Parcs i jardins >> Parcs i jardins,651,65103002006000,430551.61260524986,4584024.839948126,41.40476853682401,2.1691315376296347
﻿99329085040,Jardins del Teatre Grec,1999-11-25T00:00:00+01:00,316809,Pg Santa Madrona,11,El Poble-Sec,3,Sants-Montjuïc,8038,Barcelona,55737068,Parcs i jardins,Planol BCN >> Cultura i lleure >> Parcs i jardins >> Parcs i jardins,651,65103002006000,429635.76530454465,4580189.30318572,41.37014353208927,2.158621128519657
﻿99335103526,Jardins Creu de Pedralbes,1999-12-01T00:00:00+01:00,248108,Av Pearson,21,Pedralbes,4,Les Corts,8034,Barcelona,55737068,Parcs i jardins,Planol BCN >> Cultura i lleure >> Parcs i jardins >> Parcs i jardins,651,65103002006000,425728.94770070154,4582913.911759086,41.39433185278547,2.1115767347502405
﻿97197122612,Jardins de la Mediterrània,1997-07-16T00:00:00+02:00,137300,Foneria,13,La Marina De Port,3,Sants-Montjuïc,8038,Barcelona,55737068,Parcs i jardins,Planol BCN >> Cultura i lleure >> Parcs i jardins >> Parcs i jardins,651,65103002006000,428035.411101656,4579105.010437137,41.360236193911376,2.139615634878941
﻿99400072463,Jardins de Josep Munté,2004-01-27T14:41:21+01:00,65200,C Cardenal Reig,20,La Maternitat I Sant Ramon,4,Les Corts,8028,Barcelona,55737068,Parcs i jardins,Planol BCN >> Cultura i lleure >> Parcs i jardins >> Parcs i jardins,651,65103002006000,426179.7467016402,4581174.123834649,41.37870385314168,2.117180526318858
﻿97279132537,Jardins Josep Amat,1997-10-06T00:00:00+02:00,143904,Rda General Mitre,27,El Putxet I El Farró,5,Sarrià-Sant Gervasi,8023,Barcelona,55737068,Parcs i jardins,Planol BCN >> Cultura i lleure >> Parcs i jardins >> Parcs i jardins,651,65103002006000,428402.3594616446,4584132.368451344,41.40554846163865,2.14340824232278
﻿98336165607,Jardins Teixonera,1998-12-02T00:00:00+01:00,22400,Arenys,38,La Teixonera,7,Horta-Guinardó,8035,Barcelona,55737068,Parcs i jardins,Planol BCN >> Cultura i lleure >> Parcs i jardins >> Parcs i jardins,651,65103002006000,428253.4425140615,4585981.9403882185,41.42219349572098,2.1414074544650044
﻿99335120952,Jardins de la Reina Victòria Eugènia,1999-12-01T00:00:00+01:00,169409,G.V. Corts Catalanes,7,La Dreta De L'Eixample,2,Eixample,8007,Barcelona,55737068,Parcs i jardins,Planol BCN >> Cultura i lleure >> Parcs i jardins >> Parcs i jardins,651,65103002006000,430438.4560688074,4582262.569115563,41.38888657157082,2.1679803401568054
﻿99085102712,Parc de Diagonal Mar,1999-03-26T00:00:00+01:00,186703,Carrer De Llull,69,Diagonal Mar I El Front Marítim Del Poblenou,10,Sant Martí,8019,Barcelona,55737068,Parcs i jardins,Planol BCN >> Cultura i lleure >> Parcs i jardins >> Parcs i jardins,651,65103002006000,434157.96080684,4584404.36848959,41.40849031137141,2.212231951523546
﻿97248095629,Jardins de Joan Vinyoli,1997-09-05T00:00:00+02:00,305201,Pg Sant Joan Bosco,23,Sarrià,5,Sarrià-Sant Gervasi,8017,Barcelona,55737068,Parcs i jardins,Planol BCN >> Cultura i lleure >> Parcs i jardins >> Parcs i jardins,651,65103002006000,427158.4558331705,4582802.178160091,41.39345626377472,2.128687898396678
﻿99188085228,Jardins de la Font dels Ocellets,1999-07-07T00:00:00+02:00,29104,Jiménez I Iglesias,21,Pedralbes,4,Les Corts,8034,Barcelona,55737068,Parcs i jardins,Planol BCN >> Cultura i lleure >> Parcs i jardins >> Parcs i jardins,651,65103002006000,426640.7579674433,4582328.8606660655,41.38914624270509,2.1225533493940674
﻿99400646020,Espai Lúdic-Esportiu de la Campa,2020-01-10T12:42:14+01:00,700825,C Granja Vella,41,La Vall D'Hebron,7,Horta-Guinardó,8035,Barcelona,55737068,Parcs i jardins,Planol BCN >> Cultura i lleure >> Parcs i jardins >> Parcs i jardins,651,65103002006000,428773.69936044945,4586466.65177436,41.42660537548248,2.147575619309494
﻿98224202041,Jardins Doctors Dolsa,1998-08-12T00:00:00+02:00,125006,Fígols,19,Les Corts,4,Les Corts,8028,Barcelona,55737068,Parcs i jardins,Planol BCN >> Cultura i lleure >> Parcs i jardins >> Parcs i jardins,651,65103002006000,427184.6858823416,4581397.101876284,41.380803694745275,2.129170503906372
﻿99400609279,Jardins Sotstinent Navarro,2018-09-25T14:41:48+02:00,328706,C Sots-Tinent Navarro,2,El Barri Gòtic,1,Ciutat Vella,8002,Barcelona,55737068,Parcs i jardins,Planol BCN >> Cultura i lleure >> Parcs i jardins >> Parcs i jardins,651,65103002006000,431392.4119315087,4581599.957776578,41.38300055778058,2.179464430011531
﻿99400660532,Parc de Trinitat Nova,2020-12-02T10:20:59+01:00,330005,C Tamariu,53,La Trinitat Nova,8,Nou Barris,8033,Barcelona,55737068,Parcs i jardins,Planol BCN >> Cultura i lleure >> Parcs i jardins >> Parcs i jardins,651,65103002006000,431940.71310666634,4588991.121834904,41.449616932711336,2.1851898009580086
﻿99308125546,Jardins del Port Romà,1999-11-04T00:00:00+01:00,135203,Foc,13,La Marina De Port,3,Sants-Montjuïc,8038,Barcelona,55737068,Parcs i jardins,Planol BCN >> Cultura i lleure >> Parcs i jardins >> Parcs i jardins,651,65103002006000,428468.8599053037,4579007.351483006,41.35939523618376,2.144808762527653
﻿99400211343,Parc dels Esculls,2008-07-30T00:00:00+02:00,701612,Pl Fòrum,70,El Besòs I El Maresme,10,Sant Martí,8019,Barcelona,55737068,Parcs i jardins,Planol BCN >> Cultura i lleure >> Parcs i jardins >> Parcs i jardins,651,65103002006000,435435.49908218445,4584426.407999663,41.40879244777238,2.227513379115536
﻿99400646094,Pati Interior d'Illa d'Agustí Centelles,2020-01-13T00:00:00+01:00,305100,Passeig De Sant Joan,7,La Dreta De L'Eixample,2,Eixample,8037,Barcelona,55737069,Interiors d'illa,Planol BCN >> Cultura i lleure >> Parcs i jardins >> Interiors d'illa,651,65103002006001,430571.72852181905,4583481.9682469,41.39988081391009,2.1694344399364667
﻿99400604895,Jardins Maria Capdevila,2018-07-30T13:33:51+02:00,150604,C Grífols,43,Horta,7,Horta-Guinardó,8032,Barcelona,55737068,Parcs i jardins,Planol BCN >> Cultura i lleure >> Parcs i jardins >> Parcs i jardins,651,65103002006000,429776.8986037612,4586554.073132161,41.42748106849125,2.159570336326216
﻿157123029,Parc de la Maquinista per les treballadores i els treballadors de la Maquinista,2000-06-05T00:00:00+02:00,701292,Passeig De L'Havana,59,El Bon Pastor,9,Sant Andreu,8030,Barcelona,55737068,Parcs i jardins,Planol BCN >> Cultura i lleure >> Parcs i jardins >> Parcs i jardins,651,65103002006000,432838.43,4587508.957,41.436343203004554,2.196101084364239
﻿99400199863,Jardins de Teresa de Calcuta,2008-02-08T10:56:24+01:00,17579,Camí Antic De València,68,El Poblenou,10,Sant Martí,8005,Barcelona,55737068,Parcs i jardins,Planol BCN >> Cultura i lleure >> Parcs i jardins >> Parcs i jardins,651,65103002006000,433272.26114536665,4584173.226048747,41.40633543755732,2.201661451325657
﻿99400721845,Jardins de Torre Girona,2023-10-17T12:26:08.793562+02:00,169023,Carrer De Jordi Girona,21,Pedralbes,4,Les Corts,8034,Barcelona,55737068,Parcs i jardins,Planol BCN >> Cultura i lleure >> Parcs i jardins >> Parcs i jardins,651,65103002006000,426135.622,4582307.684,41.38890928588288,2.116514709515715
﻿99400172715,Jardins Andreu Nin,2006-11-28T12:33:41+01:00,256401,C Pintor Alsamora,45,Porta,8,Nou Barris,8016,Barcelona,55737068,Parcs i jardins,Planol BCN >> Cultura i lleure >> Parcs i jardins >> Parcs i jardins,651,65103002006000,431553.28120956954,4587294.434282408,41.434302563565325,2.1807441254908606
﻿99400141582,Jardins Áurea Cuadrado,2005-09-12T14:47:17+02:00,700907,C General Batet,20,La Maternitat I Sant Ramon,4,Les Corts,8028,Barcelona,55737068,Parcs i jardins,Planol BCN >> Cultura i lleure >> Parcs i jardins >> Parcs i jardins,651,65103002006000,425476.1415456459,4581161.163806755,41.37852227053537,2.108768648660978
﻿99400201005,Parc del Centre del Poblenou,2008-02-26T14:55:46+01:00,144601,Av Diagonal,71,Provençals Del Poblenou,10,Sant Martí,8018,Barcelona,55737068,Parcs i jardins,Planol BCN >> Cultura i lleure >> Parcs i jardins >> Parcs i jardins,651,65103002006000,433113.5806764498,4584225.555507102,41.40679356695045,2.1997573736435094
﻿92128095632,Jardins,1992-05-07T00:00:00+02:00,352507,Pg Vall D'Hebron,40,Montbau,7,Horta-Guinardó,8007,Barcelona,55737068,Parcs i jardins,Planol BCN >> Cultura i lleure >> Parcs i jardins >> Parcs i jardins,651,65103002006000,428228.7794283955,4587507.247520395,41.43592904989888,2.1409312542675263
﻿96113133107,Jardins la Sedeta,1996-04-22T00:00:00+02:00,325005,Sicília,32,El Camp D'En Grassot I Gràcia Nova,6,Gràcia,8025,Barcelona,55737068,Parcs i jardins,Planol BCN >> Cultura i lleure >> Parcs i jardins >> Parcs i jardins,651,65103002006000,430431.78075060085,4584115.699037433,41.405576512012246,2.167687591797475
﻿335195642,Jardins Interior d'Illa d'Emma de Barcelona,2000-11-30T00:00:00+01:00,87009,Carrer Del Comte Borrell,9,La Nova Esquerra De L'Eixample,2,Eixample,8015,Barcelona,55737069,Interiors d'illa,Planol BCN >> Cultura i lleure >> Parcs i jardins >> Interiors d'illa,651,65103002006001,429390.327400016,4581578.87757009,41.38263747374256,2.15552474177204
﻿99400093976,Placeta Joan Brossa,2004-08-06T14:20:07+02:00,289105,Carrer Del Rosselló,8,L'Antiga Esquerra De L'Eixample,2,Eixample,8036,Barcelona,55737069,Interiors d'illa,Planol BCN >> Cultura i lleure >> Parcs i jardins >> Interiors d'illa,651,65103002006001,429355.8525067207,4582666.974945373,41.39243455892933,2.154985585974796
﻿1080145330,Jardí de Joan Llarch,2001-03-21T00:00:00+01:00,207701,C Mendel,23,Sarrià,5,Sarrià-Sant Gervasi,8034,Barcelona,55737068,Parcs i jardins,Planol BCN >> Cultura i lleure >> Parcs i jardins >> Parcs i jardins,651,65103002006000,426431.5997952618,4583267.027468101,41.397576792774,2.1199379356081067
﻿1183122853,Jardins Interior d'Illa de Safo,2001-07-02T00:00:00+02:00,287201,Avinguda De Roma,9,La Nova Esquerra De L'Eixample,2,Eixample,8015,Barcelona,55737069,Interiors d'illa,Planol BCN >> Cultura i lleure >> Parcs i jardins >> Interiors d'illa,651,65103002006001,428494.819,4581401.506,41.3809608611564,2.144836737011663
﻿99400023674,Jardins de Jaume Perich,2002-10-21T09:10:00+02:00,169409,Gran Via De Les Corts Catalanes,7,La Dreta De L'Eixample,2,Eixample,8010,Barcelona,55737069,Interiors d'illa,Planol BCN >> Cultura i lleure >> Parcs i jardins >> Interiors d'illa,651,65103002006001,430909.461,4582794.946,41.39372211779633,2.173552696712672
﻿1338143613,Jardins de Ca l'Aranyó,2001-12-04T00:00:00+01:00,148704,C Ciutat De Granada,66,El Parc I La Llacuna Del Poblenou,10,Sant Martí,8018,Barcelona,55737068,Parcs i jardins,Planol BCN >> Cultura i lleure >> Parcs i jardins >> Parcs i jardins,651,65103002006000,432479.7119168857,4583812.303411318,41.40301853453876,2.1922204602052937
﻿1003125537,Jardins de la Campana de La Maquinista,2001-01-03T00:00:00+01:00,123306,Ferran Junoy,59,El Bon Pastor,9,Sant Andreu,8030,Barcelona,55737068,Parcs i jardins,Planol BCN >> Cultura i lleure >> Parcs i jardins >> Parcs i jardins,651,65103002006000,432826.4517718294,4587703.207555295,41.43809175061317,2.1959361294253372
﻿75990123317,Parc d'Atraccions del Tibidabo,1996-09-18T00:00:00+02:00,335701,Plaça Del Tibidabo,22,"Vallvidrera, El Tibidabo I Les Planes",5,Sarrià-Sant Gervasi,8035,Barcelona,55735069,Tibidabo,Planol BCN >> Cultura i lleure >> Espais infantils >> Tibidabo,651,65103002004001,426358.63780085,4585937.12616186,41.42161843553102,2.118740285636823
﻿99400605788,Parc Antoni Santiburcio,2018-08-09T14:10:17+02:00,296202,C Gran De Sant Andreu,60,Sant Andreu,9,Sant Andreu,8030,Barcelona,55737068,Parcs i jardins,Planol BCN >> Cultura i lleure >> Parcs i jardins >> Parcs i jardins,651,65103002006000,432223.3754814502,4588411.572535434,41.444421063133845,2.188638562006768
﻿99400625003,Parc de les Glòries,2019-04-04T14:26:32+02:00,146902,Plaça De Les Glòries Catalanes,5,El Fort Pienc,2,Eixample,8013,Barcelona,55737068,Parcs i jardins,Planol BCN >> Cultura i lleure >> Parcs i jardins >> Parcs i jardins,651,65103002006000,431900.34489091183,4583891.554243087,41.403683456120994,2.185280951483654
﻿95299121249,Jardins Walter Benjamin,1995-10-26T00:00:00+01:00,700025,Pg Josep Carner,11,El Poble-Sec,3,Sants-Montjuïc,8038,Barcelona,55737068,Parcs i jardins,Planol BCN >> Cultura i lleure >> Parcs i jardins >> Parcs i jardins,651,65103002006000,430996.91100635374,4580479.599632096,41.37287599278931,2.174862325367673
﻿95081125600,Jardins de Can Sentmenat,1995-03-22T00:00:00+01:00,58601,C Can Caralleu,23,Sarrià,5,Sarrià-Sant Gervasi,8017,Barcelona,55737068,Parcs i jardins,Planol BCN >> Cultura i lleure >> Parcs i jardins >> Parcs i jardins,651,65103002006000,426033.0815436047,4583831.067879802,41.40262028359711,2.115102292721839
﻿1128115652,Jardins Interior d'Illa de Tres Tombs,2001-05-08T00:00:00+02:00,192502,Carrer De Manso,10,Sant Antoni,2,Eixample,8015,Barcelona,55737069,Interiors d'illa,Planol BCN >> Cultura i lleure >> Parcs i jardins >> Interiors d'illa,651,65103002006001,429787.14651542,4580879.25774105,41.37637095451236,2.160351170118098
﻿95178125204,Jardí Doctor Comas i Llaberia,1995-06-27T00:00:00+02:00,158107,Av Vallcarca,28,Vallcarca I Els Penitents,6,Gràcia,8023,Barcelona,55737068,Parcs i jardins,Planol BCN >> Cultura i lleure >> Parcs i jardins >> Parcs i jardins,651,65103002006000,428284.5053370196,4585397.294093445,41.416930612365384,2.141848467458373
﻿1116122215,Parc del Mirador del Migdia,2001-04-26T00:00:00+02:00,700690,Passeig Del Migdia,11,El Poble-Sec,3,Sants-Montjuïc,8038,Barcelona,55737068,Parcs i jardins,Planol BCN >> Cultura i lleure >> Parcs i jardins >> Parcs i jardins,651,65103002006000,429141.33697358,4579041.50411877,41.359762298488135,2.152843732558814
﻿94165135054,Jardins Interior d'Illa de Sebastià Gasch,1994-06-14T00:00:00+02:00,285807,Carrer De Rocafort,9,La Nova Esquerra De L'Eixample,2,Eixample,8015,Barcelona,55737069,Interiors d'illa,Planol BCN >> Cultura i lleure >> Parcs i jardins >> Interiors d'illa,651,65103002006001,429206.61932075,4581193.24260117,41.37914804834278,2.1533729159452237
﻿99400613340,Jardins de Dolors Canals i Farriols,2018-11-19T09:16:21+01:00,250100,C Pere Moragues,70,El Besòs I El Maresme,10,Sant Martí,8019,Barcelona,55737068,Parcs i jardins,Planol BCN >> Cultura i lleure >> Parcs i jardins >> Parcs i jardins,651,65103002006000,434453.0994408409,4585371.753593862,41.41722742418654,2.2156580187174053
﻿97209132255,Parc Carmel,1997-07-28T00:00:00+02:00,67001,Ctra Carmel,37,El Carmel,7,Horta-Guinardó,8024,Barcelona,55737068,Parcs i jardins,Planol BCN >> Cultura i lleure >> Parcs i jardins >> Parcs i jardins,651,65103002006000,429404.1785077464,4585190.4463453945,41.41516676215983,2.155269268607678
﻿99400344074,Jardins del Doctor Duran i Reynals,2014-06-02T14:35:54+02:00,70607,C Casanova,8,L'Antiga Esquerra De L'Eixample,2,Eixample,8036,Barcelona,55737068,Parcs i jardins,Planol BCN >> Cultura i lleure >> Parcs i jardins >> Parcs i jardins,651,65103002006000,429184.8652235782,4582405.230463349,41.39006208376871,2.1529711276398347
﻿99400714566,Jardinets El Talia,2023-06-07T14:39:57.872648+02:00,198804,Avinguda Del Paral·Lel,10,Sant Antoni,2,Eixample,8015,Barcelona,55737068,Parcs i jardins,Planol BCN >> Cultura i lleure >> Parcs i jardins >> Parcs i jardins,651,65103002006000,430172.152,4580742.241,41.3751703874243,2.164970618039537
﻿99400365326,Jardins Interiors d'Illa Anaïs Napoleon,2014-12-10T11:24:54+01:00,197302,Carrer De La Marina,5,El Fort Pienc,2,Eixample,8013,Barcelona,55737069,Interiors d'illa,Planol BCN >> Cultura i lleure >> Parcs i jardins >> Interiors d'illa,651,65103002006001,431604.5295223079,4583307.098163062,41.398394329812795,2.1818083028292117
﻿99400736653,Jardins de Canals i Junyer,2024-05-22T13:21:17.123618+02:00,358300,Viaducte De Vallcarca,28,Vallcarca I Els Penitents,6,Gràcia,8023,Barcelona,55737068,Parcs i jardins,Planol BCN >> Cultura i lleure >> Parcs i jardins >> Parcs i jardins,651,65103002006000,428475.814,4584934.159,41.41277639924962,2.144192188013562
﻿96117112640,Jardins d'Atlanta,1996-04-26T00:00:00+02:00,197302,Marina,67,La Vila Olímpica Del Poblenou,10,Sant Martí,8005,Barcelona,55737068,Parcs i jardins,Planol BCN >> Cultura i lleure >> Parcs i jardins >> Parcs i jardins,651,65103002006000,432674.3543598556,4582142.854736303,41.3879985899126,2.1947344565530855
﻿61171409,Zoo de Barcelona,2000-03-01T00:00:00+01:00,246259,Parc Ciutadella,4,"Sant Pere, Santa Caterina I La Ribera",1,Ciutat Vella,8003,Barcelona,55735070,Zoo,Planol BCN >> Cultura i lleure >> Espais infantils >> Zoo,651,65103002004002,432041.4105524885,4581943.9265508605,41.386153673583415,2.1871870138081793
﻿1338142144,Jardins del Mirador de l'Alcalde,2001-12-04T00:00:00+01:00,218504,Carretera De Montjuïc,11,El Poble-Sec,3,Sants-Montjuïc,8038,Barcelona,55737068,Parcs i jardins,Planol BCN >> Cultura i lleure >> Parcs i jardins >> Parcs i jardins,651,65103002006000,430516.2526095569,4579824.525955966,41.366934580208515,2.169190267865246
﻿99400734689,Parc de la Colònia Castells,2024-04-11T07:55:41.033204+02:00,219100,Carrer Del Montnegre,19,Les Corts,4,Les Corts,8029,Barcelona,55737068,Parcs i jardins,Planol BCN >> Cultura i lleure >> Parcs i jardins >> Parcs i jardins,651,65103002006000,428037.329,4582146.907,41.38763361496539,2.1392774628599005
﻿99400179873,Jardins Interiors d'Illa  Via Favència,2007-03-26T15:07:32+02:00,120807,Via Favència,52,La Prosperitat,8,Nou Barris,8016,Barcelona,55737068,Parcs i jardins,Planol BCN >> Cultura i lleure >> Parcs i jardins >> Parcs i jardins,651,65103002006000,431742.6271029171,4588621.92739022,41.44627491871234,2.1828602593903743
﻿75990352709,L'Aquàrium de Barcelona - Aspro Parks,1996-09-18T00:00:00+02:00,541576,Moll Espanya,2,El Barri Gòtic,1,Ciutat Vella,8039,Barcelona,55737068,Parcs i jardins,Planol BCN >> Cultura i lleure >> Parcs i jardins >> Parcs i jardins,651,65103002006000,431797.2851355705,4580908.295609506,41.37680536906014,2.1843840154597025
﻿99400721103,Jardins d'Antònia Pich Santasusanna,2023-10-02T08:46:08.727517+02:00,701955,Jardins D'Antònia Pich I Santasusanna,60,Sant Andreu,9,Sant Andreu,8030,Barcelona,55737068,Parcs i jardins,Planol BCN >> Cultura i lleure >> Parcs i jardins >> Parcs i jardins,651,65103002006000,432716.41,4586560.318,41.42778891067299,2.1947462882133695
﻿99400737923,Parc de les Tretze Roses,2024-06-13T07:48:33.224538+02:00,262700,Carrer De Pontils,12,La Marina Del Prat Vermell,3,Sants-Montjuïc,8038,Barcelona,55737068,Parcs i jardins,Planol BCN >> Cultura i lleure >> Parcs i jardins >> Parcs i jardins,651,65103002006000,428198.037,4578147.723,41.35162874295579,2.14167300735293
